ID,NAME,Tennis Court Area,Park Name,ADDRESS,DISTRICT,WARD,Primary Permitting Status,Asset category,LIGHTS,Surface material,Lat,Long
3570,Agincourt Park,AGINCOURT PARK - Tennis Court Area,AGINCOURT PARK,27 GLEN WATFORD DR,Scarborough,41,Club,Outdoor Tennis Court,Yes,Coated,-79.27436958,43.78822902
3571,Agincourt Park,AGINCOURT PARK - Tennis Court Area,AGINCOURT PARK,27 GLEN WATFORD DR,Scarborough,41,Club,Outdoor Tennis Court,Yes,Coated,-79.27384777,43.78834572
3572,Agincourt Park,AGINCOURT PARK - Tennis Court Area,AGINCOURT PARK,27 GLEN WATFORD DR,Scarborough,41,Club,Outdoor Tennis Court,Yes,Coated,-79.2741961,43.78826694
3573,Agincourt Park,AGINCOURT PARK - Tennis Court Area,AGINCOURT PARK,27 GLEN WATFORD DR,Scarborough,41,Club,Outdoor Tennis Court,Yes,Coated,-79.27402261,43.78830584
29273,Agincourt Park,,AGINCOURT PARK,27 GLEN WATFORD DR,Scarborough,41,Club,Clubhouse,,,-79.27471885,43.78837437
2875,Alamosa Park,ALAMOSA PARK - Tennis Court Area,ALAMOSA PARK,111 ALAMOSA DR,North York,33,Club,Outdoor Tennis Court,No,Coated,-79.36940737,43.78104482
2876,Alamosa Park,ALAMOSA PARK - Tennis Court Area,ALAMOSA PARK,111 ALAMOSA DR,North York,33,Club,Outdoor Tennis Court,No,Coated,-79.36920626,43.7810446
2877,Alamosa Park,ALAMOSA PARK - Tennis Court Area,ALAMOSA PARK,111 ALAMOSA DR,North York,33,Club,Outdoor Tennis Court,No,Coated,-79.36960369,43.78104273
3563,Albion Gardens Park,ALBION GARDENS PARK - Tennis Court Area,ALBION GARDENS PARK,41 DEANLEA CRT,Etobicoke York,1,Club,Outdoor Tennis Court,Yes,Coated,-79.55932899,43.73918301
3564,Albion Gardens Park,ALBION GARDENS PARK - Tennis Court Area,ALBION GARDENS PARK,41 DEANLEA CRT,Etobicoke York,1,Club,Outdoor Tennis Court,Yes,Coated,-79.55915929,43.73921704
3565,Albion Gardens Park,ALBION GARDENS PARK - Tennis Court Area,ALBION GARDENS PARK,41 DEANLEA CRT,Etobicoke York,1,Club,Outdoor Tennis Court,Yes,Coated,-79.55898813,43.73925533
3559,Amesbury Park,AMESBURY PARK - Tennis Court Area,AMESBURY PARK,151 CULFORD RD,Etobicoke York,12,Public,Outdoor Tennis Court,No,Asphalt,-79.48371466,43.70687532
3560,Amesbury Park,AMESBURY PARK - Tennis Court Area,AMESBURY PARK,151 CULFORD RD,Etobicoke York,12,Public,Outdoor Tennis Court,No,Asphalt,-79.48355031,43.70691474
3549,Ancaster Park,ANCASTER PARK - Tennis Court Area,ANCASTER PARK,41 ANCASTER RD,North York,9,Public,Outdoor Tennis Court,No,Asphalt,-79.46594992,43.73347393
3550,Ancaster Park,ANCASTER PARK - Tennis Court Area,ANCASTER PARK,41 ANCASTER RD,North York,9,Public,Outdoor Tennis Court,No,Asphalt,-79.46576904,43.7335125
3551,Ancaster Park,ANCASTER PARK - Tennis Court Area,ANCASTER PARK,41 ANCASTER RD,North York,9,Public,Outdoor Tennis Court,No,Asphalt,-79.46613499,43.73343332
3247,Angela James Arena - Building Grounds,ANGELA JAMES ARENA - Tennis Court Area,ANGELA JAMES ARENA - Building Grounds,165 GRENOBLE DR,North York,26,Public,Outdoor Tennis Court,Yes,Asphalt,-79.32872459,43.7127046
3248,Angela James Arena - Building Grounds,ANGELA JAMES ARENA - Tennis Court Area,ANGELA JAMES ARENA - Building Grounds,165 GRENOBLE DR,North York,26,Public,Outdoor Tennis Court,Yes,Asphalt,-79.32836587,43.71278966
3249,Angela James Arena - Building Grounds,ANGELA JAMES ARENA - Tennis Court Area,ANGELA JAMES ARENA - Building Grounds,165 GRENOBLE DR,North York,26,Public,Outdoor Tennis Court,Yes,Asphalt,-79.32854523,43.71274767
3250,Angela James Arena - Building Grounds,ANGELA JAMES ARENA - Tennis Court Area,ANGELA JAMES ARENA - Building Grounds,165 GRENOBLE DR,North York,26,Public,Outdoor Tennis Court,Yes,Asphalt,-79.32818502,43.71283273
4000,Antibes Community Centre - Building Grounds,,ANTIBES COMMUNITY CENTRE - Building Grounds,140 ANTIBES DR,North York,10,Public,Outdoor Tennis Court,No,Asphalt,-79.44785017,43.78095139
3537,Balmoral Park,BALMORAL PARK - Tennis Court Area,BALMORAL PARK,170 FAYWOOD BLVD,North York,10,Public,Outdoor Tennis Court,Yes,Asphalt,-79.45041331,43.74503774
3538,Balmoral Park,BALMORAL PARK - Tennis Court Area,BALMORAL PARK,170 FAYWOOD BLVD,North York,10,Public,Outdoor Tennis Court,Yes,Asphalt,-79.4502322,43.74507693
3539,Balmoral Park,BALMORAL PARK - Tennis Court Area,BALMORAL PARK,170 FAYWOOD BLVD,North York,10,Public,Outdoor Tennis Court,Yes,Asphalt,-79.45005278,43.74511489
3532,Banbury Park,BANBURY PARK - Tennis Court Area,BANBURY PARK,120 BANBURY RD,North York,25,Club,Outdoor Tennis Court,Yes,Coated,-79.37023902,43.74226248
3533,Banbury Park,BANBURY PARK - Tennis Court Area,BANBURY PARK,120 BANBURY RD,North York,25,Club,Outdoor Tennis Court,Yes,Coated,-79.37042673,43.74227984
3534,Banbury Park,BANBURY PARK - Tennis Court Area,BANBURY PARK,120 BANBURY RD,North York,25,Club,Outdoor Tennis Court,Yes,Coated,-79.37061739,43.74229827
3535,Banbury Park,BANBURY PARK - Tennis Court Area,BANBURY PARK,120 BANBURY RD,North York,25,Club,Outdoor Tennis Court,Yes,Coated,-79.37004836,43.74224083
3527,Baycrest Park,BAYCREST PARK - Tennis Court Area,BAYCREST PARK,160 NEPTUNE DR,North York,15,Public,Outdoor Tennis Court,Yes,Asphalt,-79.44393144,43.72874555
3528,Baycrest Park,BAYCREST PARK - Tennis Court Area,BAYCREST PARK,160 NEPTUNE DR,North York,15,Public,Outdoor Tennis Court,Yes,Asphalt,-79.44411684,43.72870831
3522,Bayview Village Park,BAYVIEW VILLAGE PARK - Tennis Court Area,BAYVIEW VILLAGE PARK,2945 BAYVIEW AVE,North York,24,Public,Outdoor Tennis Court,No,Asphalt,-79.38916925,43.77333209
3523,Bayview Village Park,BAYVIEW VILLAGE PARK - Tennis Court Area,BAYVIEW VILLAGE PARK,2945 BAYVIEW AVE,North York,24,Public,Outdoor Tennis Court,No,Asphalt,-79.38898146,43.77335291
3524,Bayview Village Park,BAYVIEW VILLAGE PARK - Tennis Court Area,BAYVIEW VILLAGE PARK,2945 BAYVIEW AVE,North York,24,Public,Outdoor Tennis Court,No,Asphalt,-79.38879115,43.7733719
3042,Beaches Park,BEACHES PARK - Tennis Court Area,BEACHES PARK,2075 QUEEN ST E,Waterfront,32,Club,Outdoor Tennis Court,Yes,Clay,-79.29981954,43.66648471
3043,Beaches Park,BEACHES PARK - Tennis Court Area,BEACHES PARK,2075 QUEEN ST E,Waterfront,32,Club,Outdoor Tennis Court,Yes,Clay,-79.29970757,43.66616962
3044,Beaches Park,BEACHES PARK - Tennis Court Area,BEACHES PARK,2075 QUEEN ST E,Waterfront,32,Club,Outdoor Tennis Court,Yes,Clay,-79.30014124,43.66642434
3045,Beaches Park,BEACHES PARK - Tennis Court Area,BEACHES PARK,2075 QUEEN ST E,Waterfront,32,Club,Outdoor Tennis Court,Yes,Clay,-79.29966176,43.66651565
3046,Beaches Park,BEACHES PARK - Tennis Court Area,BEACHES PARK,2075 QUEEN ST E,Waterfront,32,Club,Outdoor Tennis Court,Yes,Clay,-79.30017926,43.66607656
3047,Beaches Park,BEACHES PARK - Tennis Court Area,BEACHES PARK,2075 QUEEN ST E,Waterfront,32,Club,Outdoor Tennis Court,Yes,Coated,-79.29955018,43.66620031
3048,Beaches Park,BEACHES PARK - Tennis Court Area,BEACHES PARK,2075 QUEEN ST E,Waterfront,32,Club,Outdoor Tennis Court,Yes,Coated,-79.30002257,43.66610649
3050,Beaches Park,BEACHES PARK - Tennis Court Area,BEACHES PARK,2075 QUEEN ST E,Waterfront,32,Club,Outdoor Tennis Court,Yes,Coated,-79.29986479,43.66613891
3051,Beaches Park,BEACHES PARK - Tennis Court Area,BEACHES PARK,2075 QUEEN ST E,Waterfront,32,Club,Outdoor Tennis Court,Yes,Coated,-79.30029697,43.66639488
3052,Beaches Park,BEACHES PARK - Tennis Court Area,BEACHES PARK,2075 QUEEN ST E,Waterfront,32,Club,Outdoor Tennis Court,Yes,Coated,-79.29997732,43.66645526
3518,Beaumonde Heights Park,BEAUMONDE HEIGHTS PARK - Tennis Court Area,BEAUMONDE HEIGHTS PARK,44 AMARON AVE,Etobicoke York,1,Public,Outdoor Tennis Court,No,Asphalt,-79.57282593,43.73963457
3519,Beaumonde Heights Park,BEAUMONDE HEIGHTS PARK - Tennis Court Area,BEAUMONDE HEIGHTS PARK,44 AMARON AVE,Etobicoke York,1,Public,Outdoor Tennis Court,No,Asphalt,-79.57300183,43.73964508
3520,Beaumonde Heights Park,BEAUMONDE HEIGHTS PARK - Tennis Court Area,BEAUMONDE HEIGHTS PARK,44 AMARON AVE,Etobicoke York,1,Public,Outdoor Tennis Court,No,Asphalt,-79.57317772,43.73965323
3512,Bellbury Park,BELLBURY PARK - Tennis Court Area,BELLBURY PARK,55 VAN HORNE AVE,North York,33,Club,Outdoor Tennis Court,Yes,Coated,-79.36062091,43.78425411
3513,Bellbury Park,BELLBURY PARK - Tennis Court Area,BELLBURY PARK,55 VAN HORNE AVE,North York,33,Club,Outdoor Tennis Court,Yes,Coated,-79.36080585,43.78421242
3514,Bellbury Park,BELLBURY PARK - Tennis Court Area,BELLBURY PARK,55 VAN HORNE AVE,North York,33,Club,Outdoor Tennis Court,Yes,Coated,-79.36101903,43.78416565
3515,Bellbury Park,BELLBURY PARK - Tennis Court Area,BELLBURY PARK,55 VAN HORNE AVE,North York,33,Club,Outdoor Tennis Court,Yes,Coated,-79.36120257,43.78412599
3516,Bellbury Park,BELLBURY PARK - Tennis Court Area,BELLBURY PARK,55 VAN HORNE AVE,North York,33,Club,Outdoor Tennis Court,Yes,Coated,-79.36043879,43.78429479
29280,Bellbury Park,,BELLBURY PARK,55 VAN HORNE AVE,North York,33,Club,Clubhouse,,,-79.36093862,43.78447053
3509,Bennington Heights Park,BENNINGTON HEIGHTS PARK - Tennis Court Area,BENNINGTON HEIGHTS PARK,465 HEATH ST E,North York,26,Club,Outdoor Tennis Court,Yes,Coated,-79.37004767,43.69491972
3510,Bennington Heights Park,BENNINGTON HEIGHTS PARK - Tennis Court Area,BENNINGTON HEIGHTS PARK,465 HEATH ST E,North York,26,Club,Outdoor Tennis Court,Yes,Coated,-79.37022193,43.69488858
3504,Bestview Park,BESTVIEW PARK - Tennis Court Area,BESTVIEW PARK,115 BESTVIEW DR,North York,24,Public,Outdoor Tennis Court,Yes,Asphalt,-79.38346836,43.80245351
3505,Bestview Park,BESTVIEW PARK - Tennis Court Area,BESTVIEW PARK,115 BESTVIEW DR,North York,24,Public,Outdoor Tennis Court,Yes,Asphalt,-79.3831121,43.80254596
3506,Bestview Park,BESTVIEW PARK - Tennis Court Area,BESTVIEW PARK,115 BESTVIEW DR,North York,24,Public,Outdoor Tennis Court,Yes,Asphalt,-79.38328949,43.80250081
3498,Birch Park,BIRCH PARK - Tennis Court Area,BIRCH PARK,75 ARCADIAN CIR,Etobicoke York,6,Public,Outdoor Tennis Court,Yes,Asphalt,-79.52668419,43.59107692
3499,Birch Park,BIRCH PARK - Tennis Court Area,BIRCH PARK,75 ARCADIAN CIR,Etobicoke York,6,Public,Outdoor Tennis Court,Yes,Asphalt,-79.52651125,43.59111657
3495,Birchmount Park,BIRCHMOUNT PARK - Tennis Court Area,BIRCHMOUNT PARK,95 BIRCHMOUNT RD,Scarborough,36,Public,Outdoor Tennis Court,Yes,Asphalt,-79.26167067,43.69734175
3496,Birchmount Park,BIRCHMOUNT PARK - Tennis Court Area,BIRCHMOUNT PARK,95 BIRCHMOUNT RD,Scarborough,36,Public,Outdoor Tennis Court,Yes,Asphalt,-79.26149843,43.6972874
3491,Bloordale Park South,BLOORDALE PARK SOUTH - Tennis Court Area,BLOORDALE PARK SOUTH,230 RENFORTH DR,Etobicoke York,3,Public,Outdoor Tennis Court,No,Asphalt,-79.56817889,43.63577967
3492,Bloordale Park South,BLOORDALE PARK SOUTH - Tennis Court Area,BLOORDALE PARK SOUTH,230 RENFORTH DR,Etobicoke York,3,Public,Outdoor Tennis Court,No,Asphalt,-79.56835937,43.63573996
3484,Bond Park,BOND PARK - Tennis Court Area,BOND PARK,120 BOND AVE,North York,25,Club,Outdoor Tennis Court,Yes,Coated,-79.350482,43.74688475
3485,Bond Park,BOND PARK - Tennis Court Area,BOND PARK,120 BOND AVE,North York,25,Club,Outdoor Tennis Court,Yes,Coated,-79.35027049,43.74662137
3486,Bond Park,BOND PARK - Tennis Court Area,BOND PARK,120 BOND AVE,North York,25,Club,Outdoor Tennis Court,Yes,Coated,-79.35022668,43.7462813
3487,Bond Park,BOND PARK - Tennis Court Area,BOND PARK,120 BOND AVE,North York,25,Club,Outdoor Tennis Court,Yes,Coated,-79.35065248,43.74681414
3488,Bond Park,BOND PARK - Tennis Court Area,BOND PARK,120 BOND AVE,North York,25,Club,Outdoor Tennis Court,Yes,Coated,-79.3500562,43.74635394
3489,Bond Park,BOND PARK - Tennis Court Area,BOND PARK,120 BOND AVE,North York,25,Club,Outdoor Tennis Court,Yes,Coated,-79.35044096,43.74655076
29308,Bond Park,,BOND PARK,120 BOND AVE,North York,25,Club,Clubhouse,,,-79.35068563,43.7465042
3984,Botany Hill Park,BOTANY HILL PARK - Tennis Court Area,BOTANY HILL PARK,277 ORTON PARK RD,Scarborough,43,Club,Outdoor Tennis Court,Yes,Coated,-79.21069851,43.77790543
3985,Botany Hill Park,BOTANY HILL PARK - Tennis Court Area,BOTANY HILL PARK,277 ORTON PARK RD,Scarborough,43,Club,Outdoor Tennis Court,Yes,Coated,-79.2108597,43.77787322
3986,Botany Hill Park,BOTANY HILL PARK - Tennis Court Area,BOTANY HILL PARK,277 ORTON PARK RD,Scarborough,43,Club,Outdoor Tennis Court,Yes,Coated,-79.21102262,43.77784226
3987,Botany Hill Park,BOTANY HILL PARK - Tennis Court Area,BOTANY HILL PARK,277 ORTON PARK RD,Scarborough,43,Club,Outdoor Tennis Court,Yes,Coated,-79.21118207,43.7778113
3480,Bridlewood Park,BRIDLEWOOD PARK - Tennis Court Area,BRIDLEWOOD PARK,445 HUNTINGWOOD DR,Scarborough,40,Club,Outdoor Tennis Court,Yes,Coated,-79.31643439,43.78318136
3481,Bridlewood Park,BRIDLEWOOD PARK - Tennis Court Area,BRIDLEWOOD PARK,445 HUNTINGWOOD DR,Scarborough,40,Club,Outdoor Tennis Court,Yes,Coated,-79.31661479,43.78314203
3482,Bridlewood Park,BRIDLEWOOD PARK - Tennis Court Area,BRIDLEWOOD PARK,445 HUNTINGWOOD DR,Scarborough,40,Club,Outdoor Tennis Court,Yes,Coated,-79.31680113,43.78309844
3475,Broadlands Park,BROADLANDS PARK - Tennis Court Area,BROADLANDS PARK,19 CASTLEGROVE BLVD,North York,34,Club,Outdoor Tennis Court,Yes,Coated,-79.32223635,43.74617333
3476,Broadlands Park,BROADLANDS PARK - Tennis Court Area,BROADLANDS PARK,19 CASTLEGROVE BLVD,North York,34,Club,Outdoor Tennis Court,Yes,Coated,-79.32205759,43.74612631
3477,Broadlands Park,BROADLANDS PARK - Tennis Court Area,BROADLANDS PARK,19 CASTLEGROVE BLVD,North York,34,Club,Outdoor Tennis Court,Yes,Coated,-79.32187882,43.7460793
3478,Broadlands Park,BROADLANDS PARK - Tennis Court Area,BROADLANDS PARK,19 CASTLEGROVE BLVD,North York,34,Club,Outdoor Tennis Court,Yes,Coated,-79.32169845,43.74603228
3468,Buttonwood Park,BUTTONWOOD PARK - Tennis Court Area,BUTTONWOOD PARK,30 MULHAM PL,Etobicoke York,4,Public,Outdoor Tennis Court,Yes,Asphalt,-79.51973629,43.68180381
3469,Buttonwood Park,BUTTONWOOD PARK - Tennis Court Area,BUTTONWOOD PARK,30 MULHAM PL,Etobicoke York,4,Public,Outdoor Tennis Court,Yes,Asphalt,-79.51991181,43.68177043
3470,Buttonwood Park,BUTTONWOOD PARK - Tennis Court Area,BUTTONWOOD PARK,30 MULHAM PL,Etobicoke York,4,Public,Outdoor Tennis Court,Yes,Asphalt,-79.5195622,43.68183755
17409,Cartwright School Park,CARTWRIGHT SCHOOL PARK - Tennis Court Area,CARTWRIGHT SCHOOL PARK,100 BENTWORTH AVE,North York,15,Public,Outdoor Tennis Court,No,Asphalt,-79.46412423,43.72125733
17410,Cartwright School Park,CARTWRIGHT SCHOOL PARK - Tennis Court Area,CARTWRIGHT SCHOOL PARK,100 BENTWORTH AVE,North York,15,Public,Outdoor Tennis Court,No,Asphalt,-79.46398795,43.72094404
2892,Cassandra Park,CASSANDRA PARK - Tennis Court Area,CASSANDRA PARK,230 CASSANDRA BLVD,North York,34,Club,Outdoor Tennis Court,Yes,Coated,-79.31857675,43.75465025
2893,Cassandra Park,CASSANDRA PARK - Tennis Court Area,CASSANDRA PARK,230 CASSANDRA BLVD,North York,34,Club,Outdoor Tennis Court,Yes,Coated,-79.3187532,43.75465777
2894,Cassandra Park,CASSANDRA PARK - Tennis Court Area,CASSANDRA PARK,230 CASSANDRA BLVD,North York,34,Club,Outdoor Tennis Court,Yes,Coated,-79.31892797,43.7546677
2895,Cassandra Park,CASSANDRA PARK - Tennis Court Area,CASSANDRA PARK,230 CASSANDRA BLVD,North York,34,Club,Outdoor Tennis Court,Yes,Coated,-79.31840364,43.75464274
3452,Cedarvale Park,CEDARVALE PARK - Tennis Court Area,CEDARVALE PARK,443 ARLINGTON AVE,Toronto East York,21,Public,Outdoor Tennis Court,Yes,Coated,-79.43209297,43.69276269
3453,Cedarvale Park,CEDARVALE PARK - Tennis Court Area,CEDARVALE PARK,443 ARLINGTON AVE,Toronto East York,21,Public,Outdoor Tennis Court,Yes,Coated,-79.43228245,43.69276447
3454,Cedarvale Park,CEDARVALE PARK - Tennis Court Area,CEDARVALE PARK,443 ARLINGTON AVE,Toronto East York,21,Public,Outdoor Tennis Court,Yes,Coated,-79.43190496,43.69276013
3455,Cedarvale Park,CEDARVALE PARK - Tennis Court Area,CEDARVALE PARK,443 ARLINGTON AVE,Toronto East York,21,Public,Outdoor Tennis Court,Yes,Coated,-79.43171562,43.69275805
3449,Chalkfarm Park,CHALKFARM PARK - Tennis Court Area,CHALKFARM PARK,2230 JANE ST,Etobicoke York,7,Public,Outdoor Tennis Court,No,Asphalt,-79.51558725,43.72667812
3450,Chalkfarm Park,CHALKFARM PARK - Tennis Court Area,CHALKFARM PARK,2230 JANE ST,Etobicoke York,7,Public,Outdoor Tennis Court,No,Asphalt,-79.51579084,43.72664878
3444,Champlain Parkette,CHAMPLAIN PARKETTE - Tennis Court Area,CHAMPLAIN PARKETTE,50 CHAMPLAIN BLVD,North York,10,Public,Outdoor Tennis Court,No,Asphalt,-79.44453868,43.73217841
3445,Champlain Parkette,CHAMPLAIN PARKETTE - Tennis Court Area,CHAMPLAIN PARKETTE,50 CHAMPLAIN BLVD,North York,10,Public,Outdoor Tennis Court,No,Asphalt,-79.44471978,43.73214282
3437,Charlottetown Park,CHARLOTTETOWN PARK - Tennis Court Area,CHARLOTTETOWN PARK,65 CHARLOTTETOWN BLVD,Scarborough,44,Club,Outdoor Tennis Court,Yes,Coated,-79.14071308,43.78075502
3438,Charlottetown Park,CHARLOTTETOWN PARK - Tennis Court Area,CHARLOTTETOWN PARK,65 CHARLOTTETOWN BLVD,Scarborough,44,Club,Outdoor Tennis Court,Yes,Coated,-79.14053983,43.78079369
3439,Charlottetown Park,CHARLOTTETOWN PARK - Tennis Court Area,CHARLOTTETOWN PARK,65 CHARLOTTETOWN BLVD,Scarborough,44,Club,Outdoor Tennis Court,Yes,Coated,-79.14036527,43.78083141
3427,Clairlea Park,CLAIRLEA PARK - Tennis Court Area,CLAIRLEA PARK,45 FAIRFAX CRES,Scarborough,35,Public,Outdoor Tennis Court,No,Asphalt,-79.28797574,43.71424347
3428,Clairlea Park,CLAIRLEA PARK - Tennis Court Area,CLAIRLEA PARK,45 FAIRFAX CRES,Scarborough,35,Public,Outdoor Tennis Court,No,Asphalt,-79.28780285,43.71427791
3423,Clanton Park,CLANTON PARK - Tennis Court Area,CLANTON PARK,30 PALM DR,North York,10,Public,Outdoor Tennis Court,Yes,Asphalt,-79.43724255,43.74607317
3424,Clanton Park,CLANTON PARK - Tennis Court Area,CLANTON PARK,30 PALM DR,North York,10,Public,Outdoor Tennis Court,Yes,Asphalt,-79.43715821,43.74575261
3425,Clanton Park,CLANTON PARK - Tennis Court Area,CLANTON PARK,30 PALM DR,North York,10,Public,Outdoor Tennis Court,Yes,Asphalt,-79.43706756,43.74609762
29332,Clanton Park,,CLANTON PARK,30 PALM DR,North York,10,Club,Clubhouse,,,-79.43775405,43.74607101
3419,Cliffwood Park,CLIFFWOOD PARK - Tennis Court Area,CLIFFWOOD PARK,280 CLIFFWOOD RD,North York,24,Public,Outdoor Tennis Court,No,Asphalt,-79.35462275,43.80817872
3420,Cliffwood Park,CLIFFWOOD PARK - Tennis Court Area,CLIFFWOOD PARK,280 CLIFFWOOD RD,North York,24,Public,Outdoor Tennis Court,No,Asphalt,-79.35444092,43.80822115
3421,Cliffwood Park,CLIFFWOOD PARK - Tennis Court Area,CLIFFWOOD PARK,280 CLIFFWOOD RD,North York,24,Public,Outdoor Tennis Court,No,Asphalt,-79.35426285,43.80826358
3415,Cloverdale Park,CLOVERDALE PARK - Tennis Court Area,CLOVERDALE PARK,85 SHAVER AVE S,Etobicoke York,5,Public,Outdoor Tennis Court,No,Asphalt,-79.54453829,43.63367398
3416,Cloverdale Park,CLOVERDALE PARK - Tennis Court Area,CLOVERDALE PARK,85 SHAVER AVE S,Etobicoke York,5,Public,Outdoor Tennis Court,No,Asphalt,-79.54471884,43.63367446
3417,Cloverdale Park,CLOVERDALE PARK - Tennis Court Area,CLOVERDALE PARK,85 SHAVER AVE S,Etobicoke York,5,Public,Outdoor Tennis Court,No,Asphalt,-79.54435773,43.63367349
3410,Clydesdale Park,CLYDESDALE PARK - Tennis Court Area,CLYDESDALE PARK,116 CLYDESDALE DR,North York,33,Club,Outdoor Tennis Court,Yes,Coated,-79.3293701,43.78371774
3411,Clydesdale Park,CLYDESDALE PARK - Tennis Court Area,CLYDESDALE PARK,116 CLYDESDALE DR,North York,33,Club,Outdoor Tennis Court,Yes,Coated,-79.32955125,43.78368034
3412,Clydesdale Park,CLYDESDALE PARK - Tennis Court Area,CLYDESDALE PARK,116 CLYDESDALE DR,North York,33,Club,Outdoor Tennis Court,Yes,Coated,-79.32992251,43.78360557
3413,Clydesdale Park,CLYDESDALE PARK - Tennis Court Area,CLYDESDALE PARK,116 CLYDESDALE DR,North York,33,Club,Outdoor Tennis Court,Yes,Coated,-79.32973957,43.78364296
29334,Clydesdale Park,,CLYDESDALE PARK,116 CLYDESDALE DR,North York,33,Club,Clubhouse,,,-79.32954913,43.78338698
3407,Coleman Park,COLEMAN PARK - Tennis Court Area,COLEMAN PARK,19 COLEMAN AVE,Toronto East York,31,Public,Outdoor Tennis Court,No,Asphalt,-79.29952726,43.68948392
3408,Coleman Park,COLEMAN PARK - Tennis Court Area,COLEMAN PARK,19 COLEMAN AVE,Toronto East York,31,Public,Outdoor Tennis Court,No,Asphalt,-79.29936857,43.68951967
3400,Confederation Park,CONFEDERATION PARK - Tennis Court Area,CONFEDERATION PARK,250 DOLLY VARDEN BLVD,Scarborough,38,Club,Outdoor Tennis Court,Yes,Coated,-79.23582959,43.77364966
3401,Confederation Park,CONFEDERATION PARK - Tennis Court Area,CONFEDERATION PARK,250 DOLLY VARDEN BLVD,Scarborough,38,Club,Outdoor Tennis Court,Yes,Coated,-79.23600388,43.77361482
3402,Confederation Park,CONFEDERATION PARK - Tennis Court Area,CONFEDERATION PARK,250 DOLLY VARDEN BLVD,Scarborough,38,Club,Outdoor Tennis Court,Yes,Coated,-79.23617819,43.77357658
3387,Cosburn Park,COSBURN PARK - Tennis Court Area,COSBURN PARK,115 ROOSEVELT RD,Toronto East York,29,Public,Outdoor Tennis Court,Yes,Asphalt,-79.33053051,43.69275676
3388,Cosburn Park,COSBURN PARK - Tennis Court Area,COSBURN PARK,115 ROOSEVELT RD,Toronto East York,29,Public,Outdoor Tennis Court,Yes,Asphalt,-79.33035647,43.69279369
3389,Cosburn Park,COSBURN PARK - Tennis Court Area,COSBURN PARK,115 ROOSEVELT RD,Toronto East York,29,Public,Outdoor Tennis Court,Yes,Asphalt,-79.33018244,43.69283195
3390,Cosburn Park,COSBURN PARK - Tennis Court Area,COSBURN PARK,115 ROOSEVELT RD,Toronto East York,29,Public,Outdoor Tennis Court,Yes,Asphalt,-79.3298765,43.69289791
3391,Cosburn Park,COSBURN PARK - Tennis Court Area,COSBURN PARK,115 ROOSEVELT RD,Toronto East York,29,Public,Outdoor Tennis Court,Yes,Asphalt,-79.33003038,43.69286493
3381,Cresthaven Park,CRESTHAVEN PARK - Tennis Court Area,CRESTHAVEN PARK,37 CRESTHAVEN DR,North York,24,Club,Outdoor Tennis Court,Yes,Coated,-79.36319467,43.7983579
3382,Cresthaven Park,CRESTHAVEN PARK - Tennis Court Area,CRESTHAVEN PARK,37 CRESTHAVEN DR,North York,24,Club,Outdoor Tennis Court,Yes,Coated,-79.36300923,43.798396
3383,Cresthaven Park,CRESTHAVEN PARK - Tennis Court Area,CRESTHAVEN PARK,37 CRESTHAVEN DR,North York,24,Club,Outdoor Tennis Court,Yes,Coated,-79.36356406,43.79828506
3384,Cresthaven Park,CRESTHAVEN PARK - Tennis Court Area,CRESTHAVEN PARK,37 CRESTHAVEN DR,North York,24,Club,Outdoor Tennis Court,Yes,Coated,-79.36337684,43.79832221
3376,Cummer Park,CUMMER PARK - Tennis Court Area,CUMMER PARK,823 CUMMER AVE,North York,24,Public,Outdoor Tennis Court,Yes,Asphalt,-79.37212088,43.79987628
3377,Cummer Park,CUMMER PARK - Tennis Court Area,CUMMER PARK,823 CUMMER AVE,North York,24,Public,Outdoor Tennis Court,Yes,Asphalt,-79.37228451,43.79982223
3378,Cummer Park,CUMMER PARK - Tennis Court Area,CUMMER PARK,823 CUMMER AVE,North York,24,Public,Outdoor Tennis Court,Yes,Asphalt,-79.37199512,43.80009529
3379,Cummer Park,CUMMER PARK - Tennis Court Area,CUMMER PARK,823 CUMMER AVE,North York,24,Public,Outdoor Tennis Court,Yes,Asphalt,-79.37182843,43.80015155
29354,June Rowlands Park,,JUNE ROWLANDS PARK,220 DAVISVILLE AVE,Toronto East York,22,Club,Clubhouse,,,-79.38821338,43.7002781
3349,Dovercourt Park,DOVERCOURT PARK - Tennis Court Area,DOVERCOURT PARK,155 BARTLETT AVE,Toronto East York,18,Public,Outdoor Tennis Court,No,Asphalt,-79.43336469,43.66552997
3350,Dovercourt Park,DOVERCOURT PARK - Tennis Court Area,DOVERCOURT PARK,155 BARTLETT AVE,Toronto East York,18,Public,Outdoor Tennis Court,No,Asphalt,-79.43321393,43.66556227
3339,Dunlace Park,DUNLACE PARK - Tennis Court Area,DUNLACE PARK,28 DUNLACE DR,North York,25,Club,Outdoor Tennis Court,Yes,Asphalt,-79.36837521,43.76289732
3340,Dunlace Park,DUNLACE PARK - Tennis Court Area,DUNLACE PARK,28 DUNLACE DR,North York,25,Club,Outdoor Tennis Court,Yes,Asphalt,-79.36873573,43.76280196
3341,Dunlace Park,DUNLACE PARK - Tennis Court Area,DUNLACE PARK,28 DUNLACE DR,North York,25,Club,Outdoor Tennis Court,Yes,Asphalt,-79.36855478,43.76284914
29382,Dunlace Park,,DUNLACE PARK,28 DUNLACE DR,North York,25,Club,Clubhouse,,,-79.36896576,43.76272618
3328,East Mall Park,EAST MALL PARK - Tennis Court Area,EAST MALL PARK,355 THE EAST MALL,Etobicoke York,5,Public,Outdoor Tennis Court,Yes,Asphalt,-79.55680307,43.64148251
3329,East Mall Park,EAST MALL PARK - Tennis Court Area,EAST MALL PARK,355 THE EAST MALL,Etobicoke York,5,Public,Outdoor Tennis Court,Yes,Asphalt,-79.55714908,43.64140228
3330,East Mall Park,EAST MALL PARK - Tennis Court Area,EAST MALL PARK,355 THE EAST MALL,Etobicoke York,5,Public,Outdoor Tennis Court,Yes,Asphalt,-79.55697536,43.64144219
29348,Cosburn Park,,COSBURN PARK,115 ROOSEVELT RD,Toronto East York,29,Club,Clubhouse,,,-79.33057174,43.6930204
3309,Eglinton Flats,EGLINTON FLATS - Tennis Court Area,EGLINTON FLATS,101 EMMETT AVE,Etobicoke York,11,Public,Outdoor Tennis Court,Yes,Asphalt,-79.49447972,43.68489355
3310,Eglinton Flats,EGLINTON FLATS - Tennis Court Area,EGLINTON FLATS,101 EMMETT AVE,Etobicoke York,11,Public,Outdoor Tennis Court,Yes,Asphalt,-79.49415347,43.68497573
3311,Eglinton Flats,EGLINTON FLATS - Tennis Court Area,EGLINTON FLATS,101 EMMETT AVE,Etobicoke York,11,Public,Outdoor Tennis Court,Yes,Asphalt,-79.4939135,43.68503246
3312,Eglinton Flats,EGLINTON FLATS - Tennis Court Area,EGLINTON FLATS,101 EMMETT AVE,Etobicoke York,11,Public,Outdoor Tennis Court,Yes,Asphalt,-79.49417278,43.68439943
3313,Eglinton Flats,EGLINTON FLATS - Tennis Court Area,EGLINTON FLATS,101 EMMETT AVE,Etobicoke York,11,Public,Outdoor Tennis Court,Yes,Asphalt,-79.49374903,43.68507159
3314,Eglinton Flats,EGLINTON FLATS - Tennis Court Area,EGLINTON FLATS,101 EMMETT AVE,Etobicoke York,11,Public,Outdoor Tennis Court,Yes,Asphalt,-79.49358994,43.68511072
3315,Eglinton Flats,EGLINTON FLATS - Tennis Court Area,EGLINTON FLATS,101 EMMETT AVE,Etobicoke York,11,Public,Outdoor Tennis Court,Yes,Asphalt,-79.49431525,43.68493464
3316,Eglinton Flats,EGLINTON FLATS - Tennis Court Area,EGLINTON FLATS,101 EMMETT AVE,Etobicoke York,11,Public,Outdoor Tennis Court,Yes,Asphalt,-79.49418044,43.68463135
3317,Eglinton Flats,EGLINTON FLATS - Tennis Court Area,EGLINTON FLATS,101 EMMETT AVE,Etobicoke York,11,Public,Outdoor Tennis Court,Yes,Asphalt,-79.49344705,43.68480351
3318,Eglinton Flats,EGLINTON FLATS - Tennis Court Area,EGLINTON FLATS,101 EMMETT AVE,Etobicoke York,11,Public,Outdoor Tennis Court,Yes,Asphalt,-79.4943503,43.68459222
3319,Eglinton Flats,EGLINTON FLATS - Tennis Court Area,EGLINTON FLATS,101 EMMETT AVE,Etobicoke York,11,Public,Outdoor Tennis Court,Yes,Asphalt,-79.49360883,43.68476438
3320,Eglinton Flats,EGLINTON FLATS - Tennis Court Area,EGLINTON FLATS,101 EMMETT AVE,Etobicoke York,11,Public,Outdoor Tennis Court,Yes,Asphalt,-79.4937733,43.68472526
3321,Eglinton Flats,EGLINTON FLATS - Tennis Court Area,EGLINTON FLATS,101 EMMETT AVE,Etobicoke York,11,Public,Outdoor Tennis Court,Yes,Asphalt,-79.49401866,43.68467048
3300,Eglinton Park,EGLINTON PARK - Tennis Court Area,EGLINTON PARK,200 EGLINTON AVE W,North York,16,Public,Outdoor Tennis Court,Yes,Asphalt,-79.40448996,43.70661165
3301,Eglinton Park,EGLINTON PARK - Tennis Court Area,EGLINTON PARK,200 EGLINTON AVE W,North York,16,Public,Outdoor Tennis Court,Yes,Asphalt,-79.40444737,43.70645559
3295,Elizabeth Simcoe Park,ELIZABETH SIMCOE PARK - Tennis Court Area,ELIZABETH SIMCOE PARK,180 SYLVAN AVE,Scarborough,43,Club,Outdoor Tennis Court,Yes,Coated,-79.20512064,43.73925131
3296,Elizabeth Simcoe Park,ELIZABETH SIMCOE PARK - Tennis Court Area,ELIZABETH SIMCOE PARK,180 SYLVAN AVE,Scarborough,43,Club,Outdoor Tennis Court,Yes,Coated,-79.20494263,43.73927616
3297,Elizabeth Simcoe Park,ELIZABETH SIMCOE PARK - Tennis Court Area,ELIZABETH SIMCOE PARK,180 SYLVAN AVE,Scarborough,43,Club,Outdoor Tennis Court,Yes,Coated,-79.20547834,43.73919678
3298,Elizabeth Simcoe Park,ELIZABETH SIMCOE PARK - Tennis Court Area,ELIZABETH SIMCOE PARK,180 SYLVAN AVE,Scarborough,43,Club,Outdoor Tennis Court,Yes,Coated,-79.20530032,43.73922404
3271,Fairmount Park,FAIRMOUNT PARK - Tennis Court Area,FAIRMOUNT PARK,1725 GERRARD ST E,Toronto East York,32,Public,Outdoor Tennis Court,No,Asphalt,-79.31545755,43.67524372
3272,Fairmount Park,FAIRMOUNT PARK - Tennis Court Area,FAIRMOUNT PARK,1725 GERRARD ST E,Toronto East York,32,Public,Outdoor Tennis Court,No,Asphalt,-79.31514043,43.67530674
3273,Fairmount Park,FAIRMOUNT PARK - Tennis Court Area,FAIRMOUNT PARK,1725 GERRARD ST E,Toronto East York,32,Public,Outdoor Tennis Court,No,Asphalt,-79.31498338,43.67533715
3274,Fairmount Park,FAIRMOUNT PARK - Tennis Court Area,FAIRMOUNT PARK,1725 GERRARD ST E,Toronto East York,32,Public,Outdoor Tennis Court,No,Asphalt,-79.31482482,43.67536867
3275,Fairmount Park,FAIRMOUNT PARK - Tennis Court Area,FAIRMOUNT PARK,1725 GERRARD ST E,Toronto East York,32,Public,Outdoor Tennis Court,No,Asphalt,-79.31529899,43.67527522
3264,Fenside Park,FENSIDE PARK - Tennis Court Area,FENSIDE PARK,30 SLIDELL CRES,North York,34,Public,Outdoor Tennis Court,Yes,Asphalt,-79.32754101,43.76476268
3265,Fenside Park,FENSIDE PARK - Tennis Court Area,FENSIDE PARK,30 SLIDELL CRES,North York,34,Public,Outdoor Tennis Court,Yes,Asphalt,-79.32715291,43.76485512
3266,Fenside Park,FENSIDE PARK - Tennis Court Area,FENSIDE PARK,30 SLIDELL CRES,North York,34,Public,Outdoor Tennis Court,Yes,Asphalt,-79.32770613,43.76472408
3267,Fenside Park,FENSIDE PARK - Tennis Court Area,FENSIDE PARK,30 SLIDELL CRES,North York,34,Public,Outdoor Tennis Court,Yes,Asphalt,-79.3273265,43.76481347
3260,Firgrove Park,FIRGROVE PARK - Tennis Court Area,FIRGROVE PARK,254 FIRGROVE CRES,Etobicoke York,7,Public,Outdoor Tennis Court,No,Asphalt,-79.5210539,43.75060517
3261,Firgrove Park,FIRGROVE PARK - Tennis Court Area,FIRGROVE PARK,254 FIRGROVE CRES,Etobicoke York,7,Public,Outdoor Tennis Court,No,Asphalt,-79.52087301,43.75064812
3262,Firgrove Park,FIRGROVE PARK - Tennis Court Area,FIRGROVE PARK,254 FIRGROVE CRES,Etobicoke York,7,Public,Outdoor Tennis Court,No,Asphalt,-79.52069048,43.75068987
3254,Flagstaff Park,FLAGSTAFF PARK - Tennis Court Area,FLAGSTAFF PARK,42 MERCURY RD,Etobicoke York,2,Public,Outdoor Tennis Court,Yes,Asphalt,-79.59067546,43.72097009
3253,Flagstaff Park,FLAGSTAFF PARK - Tennis Court Area,FLAGSTAFF PARK,42 MERCURY RD,Etobicoke York,2,Public,Outdoor Tennis Court,Yes,Asphalt,-79.59084844,43.72092927
3239,Fountainhead Park,FOUNTAINHEAD PARK - Tennis Court Area,FOUNTAINHEAD PARK,445 SENTINEL RD,North York,8,Club,Outdoor Tennis Court,Yes,Asphalt,-79.4992761,43.76208644
3240,Fountainhead Park,FOUNTAINHEAD PARK - Tennis Court Area,FOUNTAINHEAD PARK,445 SENTINEL RD,North York,8,Club,Outdoor Tennis Court,Yes,Coated,-79.49945699,43.76204464
3241,Fountainhead Park,FOUNTAINHEAD PARK - Tennis Court Area,FOUNTAINHEAD PARK,445 SENTINEL RD,North York,8,Club,Outdoor Tennis Court,Yes,Coated,-79.49963788,43.76200189
29413,Fountainhead Park,,FOUNTAINHEAD PARK,445 SENTINEL RD,North York,8,Club,Clubhouse,,,-79.49913432,43.76182292
3230,Gihon Spring Park,GIHON SPRING PARK - Tennis Court Area,GIHON SPRING PARK,75 GIHON SPRING DR,Etobicoke York,1,Public,Outdoor Tennis Court,Yes,Asphalt,-79.594631,43.75489768
3231,Gihon Spring Park,GIHON SPRING PARK - Tennis Court Area,GIHON SPRING PARK,75 GIHON SPRING DR,Etobicoke York,1,Public,Outdoor Tennis Court,Yes,Asphalt,-79.59480264,43.75486407
3336,Earlscourt Park,GIOVANNI CABOTO - Tennis Court Area,EARLSCOURT PARK,1367 ST CLAIR AVE W,Etobicoke York,17,Public,Outdoor Tennis Court,Yes,Asphalt,-79.4527847,43.67549825
3217,Glen Park,GLEN PARK - Tennis Court Area,GLEN PARK,44A EASTGLEN CRES,Etobicoke York,3,Public,Outdoor Tennis Court,Yes,Asphalt,-79.55350695,43.65079124
3218,Glen Park,GLEN PARK - Tennis Court Area,GLEN PARK,44A EASTGLEN CRES,Etobicoke York,3,Public,Outdoor Tennis Court,Yes,Asphalt,-79.5533441,43.65082595
3214,Glendora Park,GLENDORA PARK - Tennis Court Area,GLENDORA PARK,201 GLENDORA AVE,North York,23,Public,Outdoor Tennis Court,No,Asphalt,-79.39801876,43.76097542
3215,Glendora Park,GLENDORA PARK - Tennis Court Area,GLENDORA PARK,201 GLENDORA AVE,North York,23,Public,Outdoor Tennis Court,No,Asphalt,-79.39784524,43.76101514
3209,Goulding Park,GOULDING PARK - Tennis Court Area,GOULDING PARK,80 PATRICIA AVE,North York,23,Public,Outdoor Tennis Court,No,Asphalt,-79.42218776,43.7916127
3210,Goulding Park,GOULDING PARK - Tennis Court Area,GOULDING PARK,80 PATRICIA AVE,North York,23,Public,Outdoor Tennis Court,No,Asphalt,-79.42200266,43.79165397
3211,Goulding Park,GOULDING PARK - Tennis Court Area,GOULDING PARK,80 PATRICIA AVE,North York,23,Public,Outdoor Tennis Court,No,Asphalt,-79.42182164,43.79169326
3202,Gracedale Park,GRACEDALE PARK - Tennis Court Area,GRACEDALE PARK,176 GRACEDALE BLVD,Etobicoke York,7,Public,Outdoor Tennis Court,No,Asphalt,-79.56338019,43.75171399
3203,Gracedale Park,GRACEDALE PARK - Tennis Court Area,GRACEDALE PARK,176 GRACEDALE BLVD,Etobicoke York,7,Public,Outdoor Tennis Court,No,Asphalt,-79.56300766,43.75179731
3204,Gracedale Park,GRACEDALE PARK - Tennis Court Area,GRACEDALE PARK,176 GRACEDALE BLVD,Etobicoke York,7,Public,Outdoor Tennis Court,No,Asphalt,-79.56319324,43.75175565
3193,Grandravine Park,GRANDRAVINE PARK - Tennis Court Area,GRANDRAVINE PARK,23 GRANDRAVINE DR,North York,9,Public,Outdoor Tennis Court,No,Asphalt,-79.49165743,43.75228304
3194,Grandravine Park,GRANDRAVINE PARK - Tennis Court Area,GRANDRAVINE PARK,23 GRANDRAVINE DR,North York,9,Public,Outdoor Tennis Court,No,Asphalt,-79.4914723,43.75232443
3195,Grandravine Park,GRANDRAVINE PARK - Tennis Court Area,GRANDRAVINE PARK,23 GRANDRAVINE DR,North York,9,Public,Outdoor Tennis Court,No,Asphalt,-79.49129307,43.75236582
3181,Graydon Hall Park,GRAYDON HALL PARK - Tennis Court Area,GRAYDON HALL PARK,215 GRAYDON HALL DR,North York,34,Public,Outdoor Tennis Court,Yes,Asphalt,-79.34082717,43.76261796
3182,Graydon Hall Park,GRAYDON HALL PARK - Tennis Court Area,GRAYDON HALL PARK,215 GRAYDON HALL DR,North York,34,Public,Outdoor Tennis Court,Yes,Asphalt,-79.34119708,43.76254773
3184,Graydon Hall Park,GRAYDON HALL PARK - Tennis Court Area,GRAYDON HALL PARK,215 GRAYDON HALL DR,North York,34,Public,Outdoor Tennis Court,Yes,Asphalt,-79.34101005,43.76258248
3171,Gwendolen Park,,GWENDOLEN PARK,3 GWENDOLEN CRES,North York,23,Public,Outdoor Tennis Court,Yes,Coated,-79.42056678,43.75112814
3170,Gwendolen Park,GWENDOLEN PARK - Tennis Court Area,GWENDOLEN PARK,3 GWENDOLEN CRES,North York,23,Club,Outdoor Tennis Court,Yes,Coated,-79.41980058,43.75093872
3173,Gwendolen Park,GWENDOLEN PARK - Tennis Court Area,GWENDOLEN PARK,3 GWENDOLEN CRES,North York,23,Club,Outdoor Tennis Court,Yes,Coated,-79.42015919,43.7509837
3172,Gwendolen Park,GWENDOLEN PARK - Tennis Court Area,GWENDOLEN PARK,3 GWENDOLEN CRES,North York,23,Club,Outdoor Tennis Court,Yes,Coated,-79.41997924,43.75096121
29427,Gwendolen Park,,GWENDOLEN PARK,3 GWENDOLEN CRES,North York,23,Club,Clubhouse,,,-79.42040271,43.75105238
3618,Toronto Islands - Hanlan'S Point Park,HANLAN'S POINT PARK - Tennis Court Area,TORONTO ISLANDS - HANLAN'S POINT PARK,9 QUEENS QUAY  W,Waterfront,28,Public,Outdoor Tennis Court,Yes,Asphalt,-79.39161271,43.61994414
3615,Toronto Islands - Hanlan'S Point Park,HANLAN'S POINT PARK - Tennis Court Area,TORONTO ISLANDS - HANLAN'S POINT PARK,9 QUEENS QUAY  W,Waterfront,28,Public,Outdoor Tennis Court,Yes,Asphalt,-79.39143161,43.61994672
3616,Toronto Islands - Hanlan'S Point Park,HANLAN'S POINT PARK - Tennis Court Area,TORONTO ISLANDS - HANLAN'S POINT PARK,9 QUEENS QUAY  W,Waterfront,28,Public,Outdoor Tennis Court,Yes,Asphalt,-79.39125428,43.61994929
3614,Toronto Islands - Hanlan'S Point Park,HANLAN'S POINT PARK - Tennis Court Area,TORONTO ISLANDS - HANLAN'S POINT PARK,9 QUEENS QUAY  W,Waterfront,28,Public,Outdoor Tennis Court,Yes,Asphalt,-79.39162156,43.62027446
3617,Toronto Islands - Hanlan'S Point Park,HANLAN'S POINT PARK - Tennis Court Area,TORONTO ISLANDS - HANLAN'S POINT PARK,9 QUEENS QUAY  W,Waterfront,28,Public,Outdoor Tennis Court,Yes,Asphalt,-79.39144423,43.62027704
3612,Toronto Islands - Hanlan'S Point Park,HANLAN'S POINT PARK - Tennis Court Area,TORONTO ISLANDS - HANLAN'S POINT PARK,9 QUEENS QUAY  W,Waterfront,28,Public,Outdoor Tennis Court,Yes,Asphalt,-79.39126124,43.6202796
3162,Havenbrook Park,HAVENBROOK PARK - Tennis Court Area,HAVENBROOK PARK,15 HAVENBROOK BLVD,North York,33,Club,Outdoor Tennis Court,Yes,Coated,-79.35833134,43.76750943
3163,Havenbrook Park,HAVENBROOK PARK - Tennis Court Area,HAVENBROOK PARK,15 HAVENBROOK BLVD,North York,33,Club,Outdoor Tennis Court,Yes,Coated,-79.35850808,43.76746534
3164,Havenbrook Park,HAVENBROOK PARK - Tennis Court Area,HAVENBROOK PARK,15 HAVENBROOK BLVD,North York,33,Club,Outdoor Tennis Court,Yes,Coated,-79.3581529,43.76755352
3165,Havenbrook Park,HAVENBROOK PARK - Tennis Court Area,HAVENBROOK PARK,15 HAVENBROOK BLVD,North York,33,Club,Outdoor Tennis Court,Yes,Coated,-79.35797107,43.76759884
29448,Havenbrook Park,,HAVENBROOK PARK,15 HAVENBROOK BLVD,North York,33,Club,Clubhouse,,,-79.35773597,43.76765972
3155,Hawksbury Park,HAWKSBURY PARK - Tennis Court Area,HAWKSBURY PARK,1A HAWKSBURY DR,North York,24,Club,Outdoor Tennis Court,Yes,Coated,-79.3827995,43.77045308
3156,Hawksbury Park,HAWKSBURY PARK - Tennis Court Area,HAWKSBURY PARK,1A HAWKSBURY DR,North York,24,Club,Outdoor Tennis Court,Yes,Coated,-79.38297846,43.77041819
3157,Hawksbury Park,HAWKSBURY PARK - Tennis Court Area,HAWKSBURY PARK,1A HAWKSBURY DR,North York,24,Club,Outdoor Tennis Court,Yes,Coated,-79.3832873,43.77070369
3158,Hawksbury Park,HAWKSBURY PARK - Tennis Court Area,HAWKSBURY PARK,1A HAWKSBURY DR,North York,24,Club,Outdoor Tennis Court,Yes,Coated,-79.38292305,43.77077651
3159,Hawksbury Park,HAWKSBURY PARK - Tennis Court Area,HAWKSBURY PARK,1A HAWKSBURY DR,North York,24,Club,Outdoor Tennis Court,Yes,Coated,-79.38316163,43.77038331
3160,Hawksbury Park,HAWKSBURY PARK - Tennis Court Area,HAWKSBURY PARK,1A HAWKSBURY DR,North York,24,Club,Outdoor Tennis Court,Yes,Coated,-79.38310412,43.7707401
29449,Hawksbury Park,,HAWKSBURY PARK,1A HAWKSBURY DR,North York,24,Club,Clubhouse,,,-79.38330525,43.7701849
3150,Hendon Park,HENDON PARK - Tennis Court Area,HENDON PARK,50 HENDON AVE,North York,23,Public,Outdoor Tennis Court,Yes,Coated,-79.42168089,43.78115217
3151,Hendon Park,HENDON PARK - Tennis Court Area,HENDON PARK,50 HENDON AVE,North York,23,Public,Outdoor Tennis Court,Yes,Coated,-79.42204373,43.78107388
3152,Hendon Park,HENDON PARK - Tennis Court Area,HENDON PARK,50 HENDON AVE,North York,23,Public,Outdoor Tennis Court,Yes,Coated,-79.42186159,43.7811125
3153,Hendon Park,HENDON PARK - Tennis Court Area,HENDON PARK,50 HENDON AVE,North York,23,Public,Outdoor Tennis Court,Yes,Coated,-79.42222587,43.78103527
29453,Hendon Park,,HENDON PARK,50 HENDON AVE,North York,23,Club,Clubhouse,,,-79.4213229,43.78126056
3144,Heron Park,HERON PARK - Tennis Court Area,HERON PARK,292  MANSE RD,Scarborough,44,Club,Outdoor Tennis Court,Yes,Coated,-79.17830386,43.76865502
3145,Heron Park,HERON PARK - Tennis Court Area,HERON PARK,292  MANSE RD,Scarborough,44,Club,Outdoor Tennis Court,Yes,Coated,-79.1781287,43.76869324
3146,Heron Park,HERON PARK - Tennis Court Area,HERON PARK,292  MANSE RD,Scarborough,44,Club,Outdoor Tennis Court,Yes,Coated,-79.17844403,43.76896506
3147,Heron Park,HERON PARK - Tennis Court Area,HERON PARK,292  MANSE RD,Scarborough,44,Club,Outdoor Tennis Court,Yes,Coated,-79.17826701,43.76900594
3148,Heron Park,HERON PARK - Tennis Court Area,HERON PARK,292  MANSE RD,Scarborough,44,Club,Outdoor Tennis Court,Yes,Coated,-79.1780863,43.76904681
29454,Heron Park,,HERON PARK,292  MANSE RD,Scarborough,44,Club,Clubhouse,,,-79.17788151,43.76916026
3134,High Park,HIGH PARK - Tennis Court Area (  1),HIGH PARK,1873 BLOOR ST W,Etobicoke York,13,Club,Outdoor Tennis Court,Yes,Coated,-79.45912098,43.65052748
3137,High Park,HIGH PARK - Tennis Court Area (  2),HIGH PARK,1873 BLOOR ST W,Etobicoke York,13,Club,Outdoor Tennis Court,Yes,Coated,-79.45989398,43.65085718
3139,High Park,HIGH PARK - Tennis Court Area (  3),HIGH PARK,1873 BLOOR ST W,Etobicoke York,13,Club,Outdoor Tennis Court,Yes,Coated,-79.45952418,43.65159082
3132,High Park,HIGH PARK - Tennis Court Area (  4),HIGH PARK,1873 BLOOR ST W,Etobicoke York,13,Public,Outdoor Tennis Court,No,Coated,-79.46444305,43.65062803
17383,High Park,,HIGH PARK,1873 BLOOR ST W,Etobicoke York,13,Public,Outdoor Tennis Court,Yes,Concrete,-79.4655711,43.64990844
3135,High Park,HIGH PARK - Tennis Court Area (  1),HIGH PARK,1873 BLOOR ST W,Etobicoke York,13,Club,Outdoor Tennis Court,Yes,Coated,-79.45920169,43.65063237
3133,High Park,HIGH PARK - Tennis Court Area (  2),HIGH PARK,1873 BLOOR ST W,Etobicoke York,13,Club,Outdoor Tennis Court,Yes,Coated,-79.45962547,43.65074445
3140,High Park,HIGH PARK - Tennis Court Area (  3),HIGH PARK,1873 BLOOR ST W,Etobicoke York,13,Club,Outdoor Tennis Court,Yes,Coated,-79.45936505,43.65162632
3136,High Park,HIGH PARK - Tennis Court Area (  4),HIGH PARK,1873 BLOOR ST W,Etobicoke York,13,Public,Outdoor Tennis Court,No,Coated,-79.46427629,43.65062464
17384,High Park,,HIGH PARK,1873 BLOOR ST W,Etobicoke York,13,Public,Outdoor Tennis Court,Yes,Concrete,-79.46533762,43.64979837
3141,High Park,HIGH PARK - Tennis Court Area (  2),HIGH PARK,1873 BLOOR ST W,Etobicoke York,13,Club,Outdoor Tennis Court,Yes,Coated,-79.4597674,43.65080404
3138,High Park,HIGH PARK - Tennis Court Area (  4),HIGH PARK,1873 BLOOR ST W,Etobicoke York,13,Public,Outdoor Tennis Court,No,Coated,-79.46410494,43.65061904
17385,High Park,,HIGH PARK,1873 BLOOR ST W,Etobicoke York,13,Public,Outdoor Tennis Court,Yes,Asphalt,-79.46531587,43.64996623
17386,High Park,,HIGH PARK,1873 BLOOR ST W,Etobicoke York,13,Public,Outdoor Tennis Court,Yes,Asphalt,-79.46506191,43.64988604
29477,High Park,,HIGH PARK,430 PARKSIDE DR,Etobicoke York,13,Club,Clubhouse,,,-79.45947835,43.65045818
3124,Hillcrest Park,HILLCREST PARK - Tennis Court Area,HILLCREST PARK,950 DAVENPORT RD,Toronto East York,21,Club,Outdoor Tennis Court,Yes,Coated,-79.42386171,43.67600872
3125,Hillcrest Park,HILLCREST PARK - Tennis Court Area,HILLCREST PARK,950 DAVENPORT RD,Toronto East York,21,Club,Outdoor Tennis Court,Yes,Coated,-79.42434907,43.67591044
3126,Hillcrest Park,HILLCREST PARK - Tennis Court Area,HILLCREST PARK,950 DAVENPORT RD,Toronto East York,21,Club,Outdoor Tennis Court,Yes,Coated,-79.42418514,43.67594249
3127,Hillcrest Park,HILLCREST PARK - Tennis Court Area,HILLCREST PARK,950 DAVENPORT RD,Toronto East York,21,Club,Outdoor Tennis Court,Yes,Coated,-79.42402269,43.67597667
17406,Howard Talbot Park,HOWARD TALBOT PARK - Tennis Court Area,HOWARD TALBOT PARK,635 EGLINTON AVE E,North York,26,Public,Outdoor Tennis Court,No,Asphalt,-79.37236378,43.71048744
17407,Howard Talbot Park,HOWARD TALBOT PARK - Tennis Court Area,HOWARD TALBOT PARK,635 EGLINTON AVE E,North York,26,Public,Outdoor Tennis Court,No,Asphalt,-79.37216519,43.71048671
3118,Hullmar Park,HULLMAR PARK - Tennis Court Area,HULLMAR PARK,97 HULLMAR DR,North York,8,Public,Outdoor Tennis Court,Yes,Asphalt,-79.52497017,43.76514772
3119,Hullmar Park,HULLMAR PARK - Tennis Court Area,HULLMAR PARK,97 HULLMAR DR,North York,8,Public,Outdoor Tennis Court,Yes,Asphalt,-79.5253303,43.76506784
3120,Hullmar Park,HULLMAR PARK - Tennis Court Area,HULLMAR PARK,97 HULLMAR DR,North York,8,Public,Outdoor Tennis Court,Yes,Asphalt,-79.52514788,43.76510664
3113,Humber Valley Park,HUMBER VALLEY PARK - Tennis Court Area,HUMBER VALLEY PARK,54 ANGLESEY BLVD,Etobicoke York,4,Public,Outdoor Tennis Court,Yes,Asphalt,-79.52479819,43.66432332
3114,Humber Valley Park,HUMBER VALLEY PARK - Tennis Court Area,HUMBER VALLEY PARK,54 ANGLESEY BLVD,Etobicoke York,4,Public,Outdoor Tennis Court,Yes,Asphalt,-79.52470132,43.66442558
3115,Humber Valley Park,HUMBER VALLEY PARK - Tennis Court Area,HUMBER VALLEY PARK,54 ANGLESEY BLVD,Etobicoke York,4,Public,Outdoor Tennis Court,Yes,Asphalt,-79.52460818,43.66451972
3116,Humber Valley Park,HUMBER VALLEY PARK - Tennis Court Area,HUMBER VALLEY PARK,54 ANGLESEY BLVD,Etobicoke York,4,Public,Outdoor Tennis Court,Yes,Asphalt,-79.52451475,43.66461408
3108,Indian Line Park,INDIAN LINE PARK - Tennis Court Area,INDIAN LINE PARK,655 HUMBERWOOD BLVD,Etobicoke York,2,Public,Outdoor Tennis Court,Yes,Asphalt,-79.62273738,43.72510473
3109,Indian Line Park,INDIAN LINE PARK - Tennis Court Area,INDIAN LINE PARK,655 HUMBERWOOD BLVD,Etobicoke York,2,Public,Outdoor Tennis Court,Yes,Asphalt,-79.62290601,43.72505645
3095,Iroquois Park,IROQUOIS PARK - Tennis Court Area,IROQUOIS PARK,295 CHARTLAND BLVD S,Scarborough,41,Public,Outdoor Tennis Court,No,Coated,-79.26813575,43.80358865
3096,Iroquois Park,IROQUOIS PARK - Tennis Court Area,IROQUOIS PARK,295 CHARTLAND BLVD S,Scarborough,41,Public,Outdoor Tennis Court,No,Coated,-79.26826301,43.80349256
3097,Iroquois Park,IROQUOIS PARK - Tennis Court Area,IROQUOIS PARK,295 CHARTLAND BLVD S,Scarborough,41,Public,Outdoor Tennis Court,No,Coated,-79.26838416,43.80339647
3091,Irving W. Chapley Park,IRVING W. CHAPLEY PARK - Tennis Court Area,IRVING W. CHAPLEY PARK,205 WILMINGTON AVE,North York,10,Public,Outdoor Tennis Court,Yes,Asphalt,-79.4561931,43.76201193
3092,Irving W. Chapley Park,IRVING W. CHAPLEY PARK - Tennis Court Area,IRVING W. CHAPLEY PARK,205 WILMINGTON AVE,North York,10,Public,Outdoor Tennis Court,Yes,Asphalt,-79.45601642,43.76204844
3580,Jeff Healey Park,JEFF HEALEY PARK - Tennis Court Area,JEFF HEALEY PARK,19 DELROY DR,Etobicoke York,5,Public,Outdoor Tennis Court,Yes,Asphalt,-79.49602765,43.63025972
3581,Jeff Healey Park,JEFF HEALEY PARK - Tennis Court Area,JEFF HEALEY PARK,19 DELROY DR,Etobicoke York,5,Public,Outdoor Tennis Court,Yes,Asphalt,-79.4958745,43.63029993
3072,Jimmie Simpson Park,JIMMIE SIMPSON PARK - Tennis Court Area,JIMMIE SIMPSON PARK,870 QUEEN ST E,Toronto East York,30,Public,Outdoor Tennis Court,No,Asphalt,-79.34429257,43.66106283
3073,Jimmie Simpson Park,JIMMIE SIMPSON PARK - Tennis Court Area,JIMMIE SIMPSON PARK,870 QUEEN ST E,Toronto East York,30,Public,Outdoor Tennis Court,No,Asphalt,-79.34430515,43.6609382
3066,Jonathan Ashbridge Park,JONATHAN ASHBRIDGE PARK - Tennis Court Area,JONATHAN ASHBRIDGE PARK,1515 QUEEN ST E,Waterfront,32,Public,Outdoor Tennis Court,No,Asphalt,-79.32022022,43.66479575
3067,Jonathan Ashbridge Park,JONATHAN ASHBRIDGE PARK - Tennis Court Area,JONATHAN ASHBRIDGE PARK,1515 QUEEN ST E,Waterfront,32,Public,Outdoor Tennis Court,No,Asphalt,-79.3200583,43.66483427
3055,June Rowlands Park,JUNE ROWLANDS PARK - Tennis Court Area,JUNE ROWLANDS PARK,220 DAVISVILLE AVE,Toronto East York,22,Club,Outdoor Tennis Court,Yes,Coated,-79.38784785,43.70128115
3056,June Rowlands Park,JUNE ROWLANDS PARK - Tennis Court Area,JUNE ROWLANDS PARK,220 DAVISVILLE AVE,Toronto East York,22,Club,Outdoor Tennis Court,Yes,Coated,-79.38768735,43.70131072
3057,June Rowlands Park,JUNE ROWLANDS PARK - Tennis Court Area,JUNE ROWLANDS PARK,220 DAVISVILLE AVE,Toronto East York,22,Club,Outdoor Tennis Court,Yes,Coated,-79.38834643,43.70119
3058,June Rowlands Park,JUNE ROWLANDS PARK - Tennis Court Area,JUNE ROWLANDS PARK,220 DAVISVILLE AVE,Toronto East York,22,Club,Outdoor Tennis Court,Yes,Coated,-79.38850865,43.7011592
3059,June Rowlands Park,JUNE ROWLANDS PARK - Tennis Court Area,JUNE ROWLANDS PARK,220 DAVISVILLE AVE,Toronto East York,22,Club,Outdoor Tennis Court,Yes,Coated,-79.38801006,43.70125159
3060,June Rowlands Park,JUNE ROWLANDS PARK - Tennis Court Area,JUNE ROWLANDS PARK,220 DAVISVILLE AVE,Toronto East York,22,Club,Outdoor Tennis Court,Yes,Coated,-79.38817227,43.70122327
31482,Beaches Park,,BEACHES PARK,2075 QUEEN ST E,Waterfront,32,Club,Clubhouse,,,-79.30049027,43.66623551
3036,Kingsview Park,KINGSVIEW PARK - Tennis Court Area,KINGSVIEW PARK,46 KINGSVIEW BLVD,Etobicoke York,2,Public,Outdoor Tennis Court,No,Asphalt,-79.55510716,43.69890333
3037,Kingsview Park,KINGSVIEW PARK - Tennis Court Area,KINGSVIEW PARK,46 KINGSVIEW BLVD,Etobicoke York,2,Public,Outdoor Tennis Court,No,Asphalt,-79.55494425,43.69894107
3031,Kirkwood Park,KIRKWOOD PARK - Tennis Court Area,KIRKWOOD PARK,25 KIRKWOOD RD,North York,25,Public,Outdoor Tennis Court,Yes,Asphalt,-79.36145799,43.75597655
3032,Kirkwood Park,KIRKWOOD PARK - Tennis Court Area,KIRKWOOD PARK,25 KIRKWOOD RD,North York,25,Public,Outdoor Tennis Court,Yes,Asphalt,-79.36126894,43.75600256
3033,Kirkwood Park,KIRKWOOD PARK - Tennis Court Area,KIRKWOOD PARK,25 KIRKWOOD RD,North York,25,Public,Outdoor Tennis Court,Yes,Asphalt,-79.36164705,43.75594958
3034,Kirkwood Park,KIRKWOOD PARK - Tennis Court Area,KIRKWOOD PARK,25 KIRKWOOD RD,North York,25,Public,Outdoor Tennis Court,Yes,Asphalt,-79.36183476,43.75592454
3009,Laburnham Park,LABURNHAM PARK - Tennis Court Area,LABURNHAM PARK,60 LABURNHAM AVE,Etobicoke York,6,Public,Outdoor Tennis Court,No,Asphalt,-79.52659864,43.60090678
3010,Laburnham Park,LABURNHAM PARK - Tennis Court Area,LABURNHAM PARK,60 LABURNHAM AVE,Etobicoke York,6,Public,Outdoor Tennis Court,No,Asphalt,-79.52676603,43.60086738
3004,Lakeshore Boulevard Parklands,LAKESHORE BOULEVARD PARKLANDS - Tennis Court Area,LAKESHORE BOULEVARD PARKLANDS,1389 LAKE SHORE BLVD W,Waterfront,14,Public,Outdoor Tennis Court,No,Asphalt,-79.43823951,43.6336196
3005,Lakeshore Boulevard Parklands,LAKESHORE BOULEVARD PARKLANDS - Tennis Court Area,LAKESHORE BOULEVARD PARKLANDS,1389 LAKE SHORE BLVD W,Waterfront,14,Public,Outdoor Tennis Court,No,Asphalt,-79.43810085,43.6335481
3006,Lakeshore Boulevard Parklands,LAKESHORE BOULEVARD PARKLANDS - Tennis Court Area,LAKESHORE BOULEVARD PARKLANDS,1389 LAKE SHORE BLVD W,Waterfront,14,Public,Outdoor Tennis Court,No,Asphalt,-79.43782879,43.63341275
3007,Lakeshore Boulevard Parklands,LAKESHORE BOULEVARD PARKLANDS - Tennis Court Area,LAKESHORE BOULEVARD PARKLANDS,1389 LAKE SHORE BLVD W,Waterfront,14,Public,Outdoor Tennis Court,No,Asphalt,-79.43796043,43.63347914
3000,Lambton - Kingsway Park,LAMBTON - KINGSWAY PARK - Tennis Court Area,LAMBTON - KINGSWAY PARK,37 MARQUIS AVE,Etobicoke York,5,Public,Outdoor Tennis Court,No,Asphalt,-79.50740475,43.65812054
3001,Lambton - Kingsway Park,LAMBTON - KINGSWAY PARK - Tennis Court Area,LAMBTON - KINGSWAY PARK,37 MARQUIS AVE,Etobicoke York,5,Public,Outdoor Tennis Court,No,Asphalt,-79.50724031,43.65815782
3026,L'Amoreaux Sports Complex,L'AMOREAUX SPORTS COMPLEX - Tennis Court Area,L'AMOREAUX SPORTS COMPLEX,300 SILVER SPRINGS BLVD,Scarborough,39,Club,Outdoor Tennis Court,Yes,Coated,-79.30543122,43.80589994
3022,L'Amoreaux Sports Complex,L'AMOREAUX SPORTS COMPLEX - Tennis Court Area,L'AMOREAUX SPORTS COMPLEX,300 SILVER SPRINGS BLVD,Scarborough,39,Club,Outdoor Tennis Court,Yes,Coated,-79.3052636,43.80595373
3024,L'Amoreaux Sports Complex,L'AMOREAUX SPORTS COMPLEX - Tennis Court Area,L'AMOREAUX SPORTS COMPLEX,300 SILVER SPRINGS BLVD,Scarborough,39,Club,Outdoor Tennis Court,Yes,Coated,-79.30509599,43.80600753
3020,L'Amoreaux Sports Complex,L'AMOREAUX SPORTS COMPLEX - Tennis Court Area,L'AMOREAUX SPORTS COMPLEX,300 SILVER SPRINGS BLVD,Scarborough,39,Club,Outdoor Tennis Court,Yes,Coated,-79.30493064,43.80605969
3013,L'Amoreaux Sports Complex,L'AMOREAUX SPORTS COMPLEX - Tennis Court Area,L'AMOREAUX SPORTS COMPLEX,300 SILVER SPRINGS BLVD,Scarborough,39,Club,Outdoor Tennis Court,Yes,Coated,-79.30476529,43.80611349
2996,Lanyard Park,LANYARD PARK - Tennis Court Area,LANYARD PARK,138 LANYARD RD,Etobicoke York,7,Public,Outdoor Tennis Court,No,Asphalt,-79.54852371,43.74722517
2997,Lanyard Park,LANYARD PARK - Tennis Court Area,LANYARD PARK,138 LANYARD RD,Etobicoke York,7,Public,Outdoor Tennis Court,No,Asphalt,-79.54870436,43.74718294
2998,Lanyard Park,LANYARD PARK - Tennis Court Area,LANYARD PARK,138 LANYARD RD,Etobicoke York,7,Public,Outdoor Tennis Court,No,Asphalt,-79.54888657,43.747143
2989,Lawrence Park And Ravine,LAWRENCE PARK AND RAVINE - Tennis Court Area,LAWRENCE PARK AND RAVINE,51 ALEXANDER MUIR RD,North York,25,Club,Outdoor Tennis Court,Yes,Clay,-79.39916151,43.72059609
2990,Lawrence Park And Ravine,LAWRENCE PARK AND RAVINE - Tennis Court Area,LAWRENCE PARK AND RAVINE,51 ALEXANDER MUIR RD,North York,25,Club,Outdoor Tennis Court,Yes,Clay,-79.39901512,43.7205392
2991,Lawrence Park And Ravine,LAWRENCE PARK AND RAVINE - Tennis Court Area,LAWRENCE PARK AND RAVINE,51 ALEXANDER MUIR RD,North York,25,Club,Outdoor Tennis Court,Yes,Clay,-79.3993069,43.72065371
29553,Lawrence Park And Ravine,,LAWRENCE PARK AND RAVINE,51 ALEXANDER MUIR RD,North York,25,Club,Clubhouse,,,-79.3990207,43.72079089
2979,Leaside Park,LEASIDE PARK - Tennis Court Area,LEASIDE PARK,5 LEASIDE PARK DR,North York,26,Club,Outdoor Tennis Court,Yes,Coated,-79.34929962,43.70293604
2980,Leaside Park,LEASIDE PARK - Tennis Court Area,LEASIDE PARK,5 LEASIDE PARK DR,North York,26,Club,Outdoor Tennis Court,Yes,Coated,-79.34943813,43.70285323
2981,Leaside Park,LEASIDE PARK - Tennis Court Area,LEASIDE PARK,5 LEASIDE PARK DR,North York,26,Club,Outdoor Tennis Court,Yes,Coated,-79.3491577,43.70301761
2982,Leaside Park,LEASIDE PARK - Tennis Court Area,LEASIDE PARK,5 LEASIDE PARK DR,North York,26,Club,Outdoor Tennis Court,Yes,Coated,-79.34901919,43.70310166
2983,Leaside Park,LEASIDE PARK - Tennis Court Area,LEASIDE PARK,5 LEASIDE PARK DR,North York,26,Club,Outdoor Tennis Court,Yes,Coated,-79.34873536,43.70326479
2984,Leaside Park,LEASIDE PARK - Tennis Court Area,LEASIDE PARK,5 LEASIDE PARK DR,North York,26,Club,Outdoor Tennis Court,Yes,Coated,-79.34887728,43.70318323
2968,Lillian Park,LILLIAN PARK - Tennis Court Area,LILLIAN PARK,227 OTONABEE AVE,North York,24,Club,Outdoor Tennis Court,Yes,Asphalt,-79.40793756,43.79762628
2969,Lillian Park,LILLIAN PARK - Tennis Court Area,LILLIAN PARK,227 OTONABEE AVE,North York,24,Club,Outdoor Tennis Court,Yes,Asphalt,-79.40775187,43.79760746
2970,Lillian Park,LILLIAN PARK - Tennis Court Area,LILLIAN PARK,227 OTONABEE AVE,North York,24,Club,Outdoor Tennis Court,Yes,Asphalt,-79.40812584,43.79764604
2993,Lora Hill Park,LORA HILL PARK - Tennis Court Area,LORA HILL PARK,36 FERNALROY BLVD,Etobicoke York,5,Club,Outdoor Tennis Court,Yes,Asphalt,-79.51464923,43.63832196
2994,Lora Hill Park,LORA HILL PARK - Tennis Court Area,LORA HILL PARK,36 FERNALROY BLVD,Etobicoke York,5,Club,Outdoor Tennis Court,Yes,Asphalt,-79.51451789,43.63840702
2941,Lytton Park,LYTTON PARK - Tennis Court Area,LYTTON PARK,200 LYTTON BLVD,North York,16,Club,Outdoor Tennis Court,Yes,Coated,-79.41093783,43.71532333
2942,Lytton Park,LYTTON PARK - Tennis Court Area,LYTTON PARK,200 LYTTON BLVD,North York,16,Club,Outdoor Tennis Court,Yes,Coated,-79.41129872,43.71540619
2943,Lytton Park,LYTTON PARK - Tennis Court Area,LYTTON PARK,200 LYTTON BLVD,North York,16,Club,Outdoor Tennis Court,Yes,Coated,-79.41103906,43.71541304
29566,Lytton Park,,LYTTON PARK,200 LYTTON BLVD,North York,16,Club,Clubhouse,,,-79.41074681,43.71529366
2860,Major Abbas Ali Park,MAJOR ABBAS ALI PARK - Tennis Court Area,MAJOR ABBAS ALI PARK,180 MCLEVIN AVE,Scarborough,42,Club,Outdoor Tennis Court,Yes,Coated,-79.23197752,43.80349764
2861,Major Abbas Ali Park,MAJOR ABBAS ALI PARK - Tennis Court Area,MAJOR ABBAS ALI PARK,180 MCLEVIN AVE,Scarborough,42,Club,Outdoor Tennis Court,Yes,Coated,-79.23180428,43.80353729
2862,Major Abbas Ali Park,MAJOR ABBAS ALI PARK - Tennis Court Area,MAJOR ABBAS ALI PARK,180 MCLEVIN AVE,Scarborough,42,Club,Outdoor Tennis Court,Yes,Coated,-79.23163103,43.80357694
2932,Malvern Park,MALVERN PARK - Tennis Court Area,MALVERN PARK,36 SEWELLS RD,Scarborough,42,Public,Outdoor Tennis Court,Yes,Asphalt,-79.2176839,43.80884495
2933,Malvern Park,MALVERN PARK - Tennis Court Area,MALVERN PARK,36 SEWELLS RD,Scarborough,42,Public,Outdoor Tennis Court,Yes,Asphalt,-79.21793821,43.80901631
2934,Malvern Park,MALVERN PARK - Tennis Court Area,MALVERN PARK,36 SEWELLS RD,Scarborough,42,Public,Outdoor Tennis Court,Yes,Asphalt,-79.21781194,43.80892936
2927,Manchester Park,MANCHESTER PARK - Tennis Court Area,MANCHESTER PARK,75 MANCHESTER ST,Etobicoke York,6,Public,Outdoor Tennis Court,Yes,Asphalt,-79.49021165,43.62075451
2928,Manchester Park,MANCHESTER PARK - Tennis Court Area,MANCHESTER PARK,75 MANCHESTER ST,Etobicoke York,6,Public,Outdoor Tennis Court,Yes,Asphalt,-79.49008945,43.62084742
2929,Manchester Park,MANCHESTER PARK - Tennis Court Area,MANCHESTER PARK,75 MANCHESTER ST,Etobicoke York,6,Public,Outdoor Tennis Court,Yes,Asphalt,-79.48996698,43.62094273
2923,Maple Leaf Park,MAPLE LEAF PARK - Tennis Court Area,MAPLE LEAF PARK,320 CULFORD RD,Etobicoke York,12,Public,Outdoor Tennis Court,Yes,Asphalt,-79.4940859,43.71612334
2924,Maple Leaf Park,MAPLE LEAF PARK - Tennis Court Area,MAPLE LEAF PARK,320 CULFORD RD,Etobicoke York,12,Public,Outdoor Tennis Court,Yes,Asphalt,-79.49390429,43.71615853
2925,Maple Leaf Park,MAPLE LEAF PARK - Tennis Court Area,MAPLE LEAF PARK,320 CULFORD RD,Etobicoke York,12,Public,Outdoor Tennis Court,Yes,Asphalt,-79.49372407,43.71619372
60963,Marilyn Bell Park,MARILYN BELL PARK - Tennis Court Area,MARILYN BELL PARK,1095 LAKE SHORE BLVD W,Waterfront,14,Public,Outdoor Tennis Court,No,Asphalt,-79.4331,44.6308
60964,Marilyn Bell Park,MARILYN BELL PARK - Tennis Court Area,MARILYN BELL PARK,1095 LAKE SHORE BLVD W,Waterfront,14,Public,Outdoor Tennis Court,No,Asphalt,-79.4331,44.6308
60965,Marilyn Bell Park,MARILYN BELL PARK - Tennis Court Area,MARILYN BELL PARK,1095 LAKE SHORE BLVD W,Waterfront,14,Public,Outdoor Tennis Court,No,Asphalt,-79.4331,44.6308
60966,Marilyn Bell Park,MARILYN BELL PARK - Tennis Court Area,MARILYN BELL PARK,1095 LAKE SHORE BLVD W,Waterfront,14,Public,Outdoor Tennis Court,No,Asphalt,-79.4331,44.6308
2912,Martin Grove Gardens Park,MARTIN GROVE GARDENS PARK - Tennis Court Area,MARTIN GROVE GARDENS PARK,31 LAVINGTON DR,Etobicoke York,4,Public,Outdoor Tennis Court,Yes,Asphalt,-79.56345715,43.68950431
2913,Martin Grove Gardens Park,MARTIN GROVE GARDENS PARK - Tennis Court Area,MARTIN GROVE GARDENS PARK,31 LAVINGTON DR,Etobicoke York,4,Public,Outdoor Tennis Court,Yes,Asphalt,-79.56357188,43.68940418
2914,Martin Grove Gardens Park,MARTIN GROVE GARDENS PARK - Tennis Court Area,MARTIN GROVE GARDENS PARK,31 LAVINGTON DR,Etobicoke York,4,Public,Outdoor Tennis Court,Yes,Asphalt,-79.56369369,43.68931038
3575,Maryland Park,MARYLAND PARK - Tennis Court Area,MARYLAND PARK,19 MARYLAND BLVD,Toronto East York,31,Club,Outdoor Tennis Court,Yes,Coated,-79.29532472,43.69191706
3576,Maryland Park,MARYLAND PARK - Tennis Court Area,MARYLAND PARK,19 MARYLAND BLVD,Toronto East York,31,Club,Outdoor Tennis Court,Yes,Coated,-79.29516321,43.69195455
3577,Maryland Park,MARYLAND PARK - Tennis Court Area,MARYLAND PARK,19 MARYLAND BLVD,Toronto East York,31,Club,Outdoor Tennis Court,Yes,Coated,-79.29549318,43.69187832
3578,Maryland Park,MARYLAND PARK - Tennis Court Area,MARYLAND PARK,19 MARYLAND BLVD,Toronto East York,31,Club,Outdoor Tennis Court,Yes,Coated,-79.29499476,43.69199203
29571,Maryland Park,,MARYLAND PARK,19 MARYLAND BLVD,Toronto East York,31,Club,Clubhouse,,,-79.29511541,43.69166907
2908,Maryvale Park,MARYVALE PARK - Tennis Court Area,MARYVALE PARK,5 TRESTLESIDE GRV,Scarborough,37,Club,Outdoor Tennis Court,Yes,Asphalt,-79.3058628,43.75386682
2909,Maryvale Park,MARYVALE PARK - Tennis Court Area,MARYVALE PARK,5 TRESTLESIDE GRV,Scarborough,37,Club,Outdoor Tennis Court,Yes,Asphalt,-79.30569425,43.75390303
2910,Maryvale Park,MARYVALE PARK - Tennis Court Area,MARYVALE PARK,5 TRESTLESIDE GRV,Scarborough,37,Club,Outdoor Tennis Court,Yes,Asphalt,-79.30603482,43.75383187
2897,Mcdairmid Woods Park,MCDAIRMID WOODS PARK - Tennis Court Area,MCDAIRMID WOODS PARK,51 RUBIC CRES,Scarborough,41,Public,Outdoor Tennis Court,Yes,Asphalt,-79.26657777,43.7804893
2898,Mcdairmid Woods Park,MCDAIRMID WOODS PARK - Tennis Court Area,MCDAIRMID WOODS PARK,51 RUBIC CRES,Scarborough,41,Public,Outdoor Tennis Court,Yes,Asphalt,-79.26640424,43.78052596
2899,Mcdairmid Woods Park,MCDAIRMID WOODS PARK - Tennis Court Area,MCDAIRMID WOODS PARK,51 RUBIC CRES,Scarborough,41,Public,Outdoor Tennis Court,Yes,Asphalt,-79.2662307,43.78056261
2888,Mcgregor Park,MCGREGOR PARK - Tennis Court Area,MCGREGOR PARK,2231 LAWRENCE AVE E,Scarborough,37,Public,Outdoor Tennis Court,No,Asphalt,-79.28106877,43.74695746
2889,Mcgregor Park,MCGREGOR PARK - Tennis Court Area,MCGREGOR PARK,2231 LAWRENCE AVE E,Scarborough,37,Public,Outdoor Tennis Court,No,Asphalt,-79.2812399,43.74692237
2890,Mcgregor Park,MCGREGOR PARK - Tennis Court Area,MCGREGOR PARK,2231 LAWRENCE AVE E,Scarborough,37,Public,Outdoor Tennis Court,No,Asphalt,-79.2809009,43.74699374
2883,Mcnicoll Park,MCNICOLL PARK - Tennis Court Area,MCNICOLL PARK,215 MCNICOLL AVE,North York,24,Public,Outdoor Tennis Court,Yes,Asphalt,-79.35406526,43.79802626
2884,Mcnicoll Park,MCNICOLL PARK - Tennis Court Area,MCNICOLL PARK,215 MCNICOLL AVE,North York,24,Public,Outdoor Tennis Court,Yes,Asphalt,-79.35369188,43.7981083
2885,Mcnicoll Park,MCNICOLL PARK - Tennis Court Area,MCNICOLL PARK,215 MCNICOLL AVE,North York,24,Public,Outdoor Tennis Court,Yes,Asphalt,-79.35387566,43.79806812
2872,Mill Valley Park,MILL VALLEY PARK - Tennis Court Area,MILL VALLEY PARK,412 MILL RD,Etobicoke York,3,Public,Outdoor Tennis Court,No,Asphalt,-79.58780012,43.64341557
2873,Mill Valley Park,MILL VALLEY PARK - Tennis Court Area,MILL VALLEY PARK,412 MILL RD,Etobicoke York,3,Public,Outdoor Tennis Court,No,Asphalt,-79.58794771,43.64334501
2868,Millwood Park,MILLWOOD PARK - Tennis Court Area,MILLWOOD PARK,4370 BLOOR ST W,Etobicoke York,3,Public,Outdoor Tennis Court,Yes,Asphalt,-79.57917903,43.63202211
2869,Millwood Park,MILLWOOD PARK - Tennis Court Area,MILLWOOD PARK,4370 BLOOR ST W,Etobicoke York,3,Public,Outdoor Tennis Court,Yes,Asphalt,-79.57882863,43.6319731
2870,Millwood Park,MILLWOOD PARK - Tennis Court Area,MILLWOOD PARK,4370 BLOOR ST W,Etobicoke York,3,Public,Outdoor Tennis Court,Yes,Asphalt,-79.57900318,43.63199695
2864,Mimico Memorial Park,MIMICO MEMORIAL PARK - Tennis Court Area,MIMICO MEMORIAL PARK,75 HILLSIDE AVE,Etobicoke York,6,Club,Outdoor Tennis Court,Yes,Clay,-79.493644,43.60917779
2865,Mimico Memorial Park,MIMICO MEMORIAL PARK - Tennis Court Area,MIMICO MEMORIAL PARK,75 HILLSIDE AVE,Etobicoke York,6,Club,Outdoor Tennis Court,Yes,Clay,-79.49348227,43.6092118
2866,Mimico Memorial Park,MIMICO MEMORIAL PARK - Tennis Court Area,MIMICO MEMORIAL PARK,75 HILLSIDE AVE,Etobicoke York,6,Club,Outdoor Tennis Court,Yes,Clay,-79.4938036,43.60914378
29573,Mimico Memorial Park,,MIMICO MEMORIAL PARK,29 GEORGE ST,Etobicoke York,6,Club,Clubhouse,,,-79.4935712,43.60893539
2856,Moore Park,MOORE PARK - Tennis Court Area,MOORE PARK,110 CACTUS AVE,North York,23,Public,Outdoor Tennis Court,No,Asphalt,-79.43456388,43.79164456
2857,Moore Park,MOORE PARK - Tennis Court Area,MOORE PARK,110 CACTUS AVE,North York,23,Public,Outdoor Tennis Court,No,Asphalt,-79.43438119,43.79168405
2858,Moore Park,MOORE PARK - Tennis Court Area,MOORE PARK,110 CACTUS AVE,North York,23,Public,Outdoor Tennis Court,No,Asphalt,-79.43419849,43.79172451
3995,Moorevale Park,MOOREVALE PARK - Tennis Court Area,MOOREVALE PARK,175 MOORE AVE,Toronto East York,27,Club,Outdoor Tennis Court,Yes,Coated,-79.38236127,43.69325809
3996,Moorevale Park,MOOREVALE PARK - Tennis Court Area,MOOREVALE PARK,175 MOORE AVE,Toronto East York,27,Club,Outdoor Tennis Court,Yes,Coated,-79.38282529,43.69315927
3997,Moorevale Park,MOOREVALE PARK - Tennis Court Area,MOOREVALE PARK,175 MOORE AVE,Toronto East York,27,Club,Outdoor Tennis Court,Yes,Coated,-79.38267109,43.69319256
3998,Moorevale Park,MOOREVALE PARK - Tennis Court Area,MOOREVALE PARK,175 MOORE AVE,Toronto East York,27,Club,Outdoor Tennis Court,Yes,Coated,-79.3825169,43.6932248
3999,Moorevale Park,MOOREVALE PARK - Tennis Court Area,MOOREVALE PARK,175 MOORE AVE,Toronto East York,27,Club,Outdoor Tennis Court,Yes,Coated,-79.38297804,43.69312702
30923,Moorevale Park,,MOOREVALE PARK,175 MOORE AVE,Toronto East York,27,Club,Clubhouse,,,-79.38223315,43.69358275
3981,Moss Park,MOSS PARK - Tennis Court Area,MOSS PARK,150 SHERBOURNE ST,Toronto East York,27,Public,Outdoor Tennis Court,Yes,Asphalt,-79.37227743,43.65512985
3982,Moss Park,MOSS PARK - Tennis Court Area,MOSS PARK,150 SHERBOURNE ST,Toronto East York,27,Public,Outdoor Tennis Court,Yes,Asphalt,-79.37211602,43.6551667
3974,North Bendale Park,NORTH BENDALE PARK - Tennis Court Area,NORTH BENDALE PARK,40 ERINLEA CRES,Scarborough,38,Club,Outdoor Tennis Court,Yes,Coated,-79.24578847,43.77006118
3975,North Bendale Park,NORTH BENDALE PARK - Tennis Court Area,NORTH BENDALE PARK,40 ERINLEA CRES,Scarborough,38,Club,Outdoor Tennis Court,Yes,Coated,-79.24596241,43.770025
3976,North Bendale Park,NORTH BENDALE PARK - Tennis Court Area,NORTH BENDALE PARK,40 ERINLEA CRES,Scarborough,38,Club,Outdoor Tennis Court,Yes,Coated,-79.24613777,43.76998679
3970,North Park,NORTH PARK - Tennis Court Area,NORTH PARK,587 RUSTIC RD,Etobicoke York,12,Public,Outdoor Tennis Court,No,Asphalt,-79.47183506,43.71827696
3971,North Park,NORTH PARK - Tennis Court Area,NORTH PARK,587 RUSTIC RD,Etobicoke York,12,Public,Outdoor Tennis Court,No,Asphalt,-79.47166319,43.71830252
29745,Willowdale Park,,WILLOWDALE PARK,75 HOLLYWOOD AVE,North York,23,Club,Clubhouse,,,-79.40805249,43.7662024
3959,Norwood Park,NORWOOD PARK - Tennis Court Area,NORWOOD PARK,16 NORWOOD RD,Toronto East York,32,Public,Outdoor Tennis Court,No,Asphalt,-79.3029781,43.68261507
3960,Norwood Park,NORWOOD PARK - Tennis Court Area,NORWOOD PARK,16 NORWOOD RD,Toronto East York,32,Public,Outdoor Tennis Court,No,Asphalt,-79.30330383,43.68254627
3961,Norwood Park,NORWOOD PARK - Tennis Court Area,NORWOOD PARK,16 NORWOOD RD,Toronto East York,32,Public,Outdoor Tennis Court,No,Asphalt,-79.3034667,43.68251079
3962,Norwood Park,NORWOOD PARK - Tennis Court Area,NORWOOD PARK,16 NORWOOD RD,Toronto East York,32,Public,Outdoor Tennis Court,No,Asphalt,-79.30281523,43.68265055
3963,Norwood Park,NORWOOD PARK - Tennis Court Area,NORWOOD PARK,16 NORWOOD RD,Toronto East York,32,Public,Outdoor Tennis Court,No,Asphalt,-79.30314096,43.68258176
3952,Old Mill Site Park,OLD MILL SITE PARK - Tennis Court Area,OLD MILL SITE PARK,5 CATHERINE ST,Etobicoke York,13,Club,Outdoor Tennis Court,Yes,Coated,-79.49046919,43.65111594
3953,Old Mill Site Park,OLD MILL SITE PARK - Tennis Court Area,OLD MILL SITE PARK,5 CATHERINE ST,Etobicoke York,13,Club,Outdoor Tennis Court,Yes,Coated,-79.49029291,43.65114304
3954,Old Mill Site Park,OLD MILL SITE PARK - Tennis Court Area,OLD MILL SITE PARK,5 CATHERINE ST,Etobicoke York,13,Club,Outdoor Tennis Court,Yes,Coated,-79.49020169,43.65082075
3955,Old Mill Site Park,OLD MILL SITE PARK - Tennis Court Area,OLD MILL SITE PARK,5 CATHERINE ST,Etobicoke York,13,Club,Outdoor Tennis Court,Yes,Coated,-79.49036348,43.65057076
3947,Oriole Park - North York,ORIOLE PARK - NORTH YORK - Tennis Court Area,ORIOLE PARK - NORTH YORK,2955 DON MILLS RD,North York,33,Club,Outdoor Tennis Court,Yes,Asphalt,-79.35078455,43.78203982
3948,Oriole Park - North York,ORIOLE PARK - NORTH YORK - Tennis Court Area,ORIOLE PARK - NORTH YORK,2955 DON MILLS RD,North York,33,Club,Outdoor Tennis Court,Yes,Asphalt,-79.35088216,43.78174711
3949,Oriole Park - North York,ORIOLE PARK - NORTH YORK - Tennis Court Area,ORIOLE PARK - NORTH YORK,2955 DON MILLS RD,North York,33,Club,Outdoor Tennis Court,Yes,Asphalt,-79.35071429,43.78176402
3950,Oriole Park - North York,ORIOLE PARK - NORTH YORK - Tennis Court Area,ORIOLE PARK - NORTH YORK,2955 DON MILLS RD,North York,33,Club,Outdoor Tennis Court,Yes,Asphalt,-79.35095007,43.78201949
3944,Oriole Park - Toronto,ORIOLE PARK - TORONTO - Tennis Court Area,ORIOLE PARK - TORONTO,201 ORIOLE PKWY,Toronto East York,22,Public,Outdoor Tennis Court,No,Asphalt,-79.39928015,43.6969922
3945,Oriole Park - Toronto,ORIOLE PARK - TORONTO - Tennis Court Area,ORIOLE PARK - TORONTO,201 ORIOLE PKWY,Toronto East York,22,Public,Outdoor Tennis Court,No,Asphalt,-79.39944322,43.69695834
3940,Ourland Park,OURLAND PARK - Tennis Court Area,OURLAND PARK,18 OURLAND AVE,Etobicoke York,6,Public,Outdoor Tennis Court,Yes,Asphalt,-79.50956085,43.61631438
3942,Ourland Park,OURLAND PARK - Tennis Court Area,OURLAND PARK,18 OURLAND AVE,Etobicoke York,6,Public,Outdoor Tennis Court,Yes,Asphalt,-79.50973223,43.61627647
3932,Park Lawn Park,PARK LAWN PARK - Tennis Court Area,PARK LAWN PARK,330 PARK LAWN RD,Etobicoke York,5,Public,Outdoor Tennis Court,Yes,Asphalt,-79.4953937,43.63924231
3933,Park Lawn Park,PARK LAWN PARK - Tennis Court Area,PARK LAWN PARK,330 PARK LAWN RD,Etobicoke York,5,Public,Outdoor Tennis Court,Yes,Asphalt,-79.49554973,43.63920899
3934,Park Lawn Park,PARK LAWN PARK - Tennis Court Area,PARK LAWN PARK,330 PARK LAWN RD,Etobicoke York,5,Public,Outdoor Tennis Court,Yes,Asphalt,-79.49523155,43.63927564
3935,Park Lawn Park,PARK LAWN PARK - Tennis Court Area,PARK LAWN PARK,330 PARK LAWN RD,Etobicoke York,5,Public,Outdoor Tennis Court,Yes,Asphalt,-79.49570423,43.63917566
29320,Cassandra Park,,CASSANDRA PARK,230 CASSANDRA BLVD,North York,34,Club,Clubhouse,,,-79.31915436,43.75468027
3920,Pelmo Park,PELMO PARK - Tennis Court Area,PELMO PARK,171 PELLATT AVE,Etobicoke York,11,Public,Outdoor Tennis Court,Yes,Asphalt,-79.51906095,43.71397485
3921,Pelmo Park,PELMO PARK - Tennis Court Area,PELMO PARK,171 PELLATT AVE,Etobicoke York,11,Public,Outdoor Tennis Court,Yes,Asphalt,-79.51924618,43.71394288
3922,Pelmo Park,PELMO PARK - Tennis Court Area,PELMO PARK,171 PELLATT AVE,Etobicoke York,11,Public,Outdoor Tennis Court,Yes,Asphalt,-79.51942956,43.71391357
3913,Pine Point Park,PINE POINT PARK - Tennis Court Area (  1),PINE POINT PARK,4 CONAN RD,Etobicoke York,2,Public,Outdoor Tennis Court,Yes,Clay,-79.54979383,43.71129856
3908,Pine Point Park,PINE POINT PARK - Tennis Court Area (  2),PINE POINT PARK,4 CONAN RD,Etobicoke York,2,Club,Outdoor Tennis Court,Yes,Clay,-79.54384713,43.7125728
3909,Pine Point Park,PINE POINT PARK - Tennis Court Area (  1),PINE POINT PARK,4 CONAN RD,Etobicoke York,2,Public,Outdoor Tennis Court,Yes,Clay,-79.54961871,43.71133286
3907,Pine Point Park,PINE POINT PARK - Tennis Court Area (  2),PINE POINT PARK,4 CONAN RD,Etobicoke York,2,Club,Outdoor Tennis Court,Yes,Clay,-79.5436765,43.71261212
3910,Pine Point Park,PINE POINT PARK - Tennis Court Area (  2),PINE POINT PARK,4 CONAN RD,Etobicoke York,2,Club,Outdoor Tennis Court,Yes,Clay,-79.54350184,43.71265415
3911,Pine Point Park,PINE POINT PARK - Tennis Court Area (  2),PINE POINT PARK,4 CONAN RD,Etobicoke York,2,Club,Outdoor Tennis Court,Yes,Clay,-79.5433256,43.71269488
29597,Pine Point Park,,PINE POINT PARK,15 GRIERSON RD,Etobicoke York,2,Club,Clubhouse,,,-79.54408584,43.71256193
3898,Prairie Drive Park,PRAIRIE DRIVE PARK - Tennis Court Area,PRAIRIE DRIVE PARK,70 PRAIRIE DR,Scarborough,35,Public,Outdoor Tennis Court,Yes,Asphalt,-79.28492538,43.69675134
3899,Prairie Drive Park,PRAIRIE DRIVE PARK - Tennis Court Area,PRAIRIE DRIVE PARK,70 PRAIRIE DR,Scarborough,35,Public,Outdoor Tennis Court,Yes,Asphalt,-79.2847669,43.69681044
3900,Prairie Drive Park,PRAIRIE DRIVE PARK - Tennis Court Area,PRAIRIE DRIVE PARK,70 PRAIRIE DR,Scarborough,35,Public,Outdoor Tennis Court,Yes,Asphalt,-79.28460568,43.69687151
3891,Prince Of Wales Park,PRINCE OF WALES PARK - Tennis Court Area,PRINCE OF WALES PARK,1 THIRD ST,Etobicoke York,6,Public,Outdoor Tennis Court,Yes,Asphalt,-79.49893224,43.59861493
3892,Prince Of Wales Park,PRINCE OF WALES PARK - Tennis Court Area,PRINCE OF WALES PARK,1 THIRD ST,Etobicoke York,6,Public,Outdoor Tennis Court,Yes,Asphalt,-79.49903764,43.59885933
3893,Prince Of Wales Park,PRINCE OF WALES PARK - Tennis Court Area,PRINCE OF WALES PARK,1 THIRD ST,Etobicoke York,6,Public,Outdoor Tennis Court,Yes,Asphalt,-79.4990875,43.59898665
3895,Prince Of Wales Park,PRINCE OF WALES PARK - Tennis Court Area,PRINCE OF WALES PARK,1 THIRD ST,Etobicoke York,6,Public,Outdoor Tennis Court,Yes,Asphalt,-79.49897992,43.59873166
3889,Princess Anne Park,PRINCESS ANNE PARK - Tennis Court Area,PRINCESS ANNE PARK,25A PRINCESS MARGARET Blvd,Etobicoke York,4,Public,Outdoor Tennis Court,No,Asphalt,-79.54023202,43.67270221
3890,Princess Anne Park,PRINCESS ANNE PARK - Tennis Court Area,PRINCESS ANNE PARK,25A PRINCESS MARGARET Blvd,Etobicoke York,4,Public,Outdoor Tennis Court,No,Asphalt,-79.54009938,43.67279909
3879,Queensway Park,,QUEENSWAY PARK,8 AVON PARK DR,Etobicoke York,5,Public,Outdoor Tennis Court,No,Asphalt,-79.50594856,43.62657891
3872,Ramsden Park,RAMSDEN PARK - Tennis Court Area (  1),RAMSDEN PARK,1020 YONGE ST,Toronto East York,27,Public,Outdoor Tennis Court,Yes,Asphalt,-79.39151097,43.67626161
3867,Ramsden Park,RAMSDEN PARK - Tennis Court Area (  2),RAMSDEN PARK,1020 YONGE ST,Toronto East York,27,Public,Outdoor Tennis Court,Yes,Asphalt,-79.39375401,43.67670885
3871,Ramsden Park,RAMSDEN PARK - Tennis Court Area (  3),RAMSDEN PARK,1020 YONGE ST,Toronto East York,27,Public,Outdoor Tennis Court,Yes,Asphalt,-79.39480268,43.67641771
3874,Ramsden Park,RAMSDEN PARK - Tennis Court Area (  1),RAMSDEN PARK,1020 YONGE ST,Toronto East York,27,Public,Outdoor Tennis Court,Yes,Asphalt,-79.39167044,43.67623209
3875,Ramsden Park,RAMSDEN PARK - Tennis Court Area (  2),RAMSDEN PARK,1020 YONGE ST,Toronto East York,27,Public,Outdoor Tennis Court,Yes,Asphalt,-79.39415521,43.67651494
3868,Ramsden Park,RAMSDEN PARK - Tennis Court Area (  3),RAMSDEN PARK,1020 YONGE ST,Toronto East York,27,Public,Outdoor Tennis Court,Yes,Asphalt,-79.39463389,43.67645071
3869,Ramsden Park,RAMSDEN PARK - Tennis Court Area (  1),RAMSDEN PARK,1020 YONGE ST,Toronto East York,27,Public,Outdoor Tennis Court,Yes,Asphalt,-79.39199285,43.67616925
3876,Ramsden Park,RAMSDEN PARK - Tennis Court Area (  2),RAMSDEN PARK,1020 YONGE ST,Toronto East York,27,Public,Outdoor Tennis Court,Yes,Asphalt,-79.39419435,43.67663285
3873,Ramsden Park,RAMSDEN PARK - Tennis Court Area (  3),RAMSDEN PARK,1020 YONGE ST,Toronto East York,27,Public,Outdoor Tennis Court,Yes,Asphalt,-79.39518075,43.67642083
3878,Ramsden Park,RAMSDEN PARK - Tennis Court Area (  1),RAMSDEN PARK,1020 YONGE ST,Toronto East York,27,Public,Outdoor Tennis Court,Yes,Asphalt,-79.39183345,43.67620134
3877,Ramsden Park,RAMSDEN PARK - Tennis Court Area (  2),RAMSDEN PARK,1020 YONGE ST,Toronto East York,27,Public,Outdoor Tennis Court,Yes,Asphalt,-79.39371361,43.67659003
3870,Ramsden Park,RAMSDEN PARK - Tennis Court Area (  3),RAMSDEN PARK,1020 YONGE ST,Toronto East York,27,Public,Outdoor Tennis Court,Yes,Asphalt,-79.39501196,43.6764529
3858,Humberside Grounds,RAVINA GARDENS - Tennis Court Area,HUMBERSIDE GROUNDS,230 GLENDONWYNNE RD,Etobicoke York,13,Public,Outdoor Tennis Court,No,Asphalt,-79.46973613,43.65990043
3859,Humberside Grounds,RAVINA GARDENS - Tennis Court Area,HUMBERSIDE GROUNDS,230 GLENDONWYNNE RD,Etobicoke York,13,Public,Outdoor Tennis Court,No,Asphalt,-79.46959546,43.65984686
3860,Humberside Grounds,RAVINA GARDENS - Tennis Court Area,HUMBERSIDE GROUNDS,230 GLENDONWYNNE RD,Etobicoke York,13,Public,Outdoor Tennis Court,No,Asphalt,-79.46977542,43.65960104
3861,Humberside Grounds,RAVINA GARDENS - Tennis Court Area,HUMBERSIDE GROUNDS,230 GLENDONWYNNE RD,Etobicoke York,13,Public,Outdoor Tennis Court,No,Asphalt,-79.469913,43.65965168
3850,Rennie Park,RENNIE PARK - Tennis Court Area,RENNIE PARK,1 RENNIE TER,Etobicoke York,13,Club,Outdoor Tennis Court,Yes,Coated,-79.47368631,43.64468087
3851,Rennie Park,RENNIE PARK - Tennis Court Area,RENNIE PARK,1 RENNIE TER,Etobicoke York,13,Club,Outdoor Tennis Court,Yes,Coated,-79.4735216,43.64471571
3852,Rennie Park,RENNIE PARK - Tennis Court Area,RENNIE PARK,1 RENNIE TER,Etobicoke York,13,Club,Outdoor Tennis Court,Yes,Coated,-79.47336239,43.64475056
3853,Rennie Park,RENNIE PARK - Tennis Court Area,RENNIE PARK,1 RENNIE TER,Etobicoke York,13,Club,Outdoor Tennis Court,Yes,Coated,-79.47320318,43.64478442
3829,Rockford Park,ROCKFORD PARK - Tennis Court Area,ROCKFORD PARK,70 ROCKFORD RD,North York,10,Public,Outdoor Tennis Court,Yes,Asphalt,-79.45320245,43.78603914
3830,Rockford Park,ROCKFORD PARK - Tennis Court Area,ROCKFORD PARK,70 ROCKFORD RD,North York,10,Public,Outdoor Tennis Court,Yes,Asphalt,-79.45338247,43.78600336
3810,Rosedale Park,ROSEDALE PARK - Tennis Court Area (  1),ROSEDALE PARK,20 SCHOLFIELD AVE,Toronto East York,27,Club,Outdoor Tennis Court,Yes,Coated,-79.37869472,43.68336863
3812,Rosedale Park,ROSEDALE PARK - Tennis Court Area (  2),ROSEDALE PARK,20 SCHOLFIELD AVE,Toronto East York,27,Public,Outdoor Tennis Court,Yes,Coated,-79.37994518,43.68307411
3811,Rosedale Park,ROSEDALE PARK - Tennis Court Area (  1),ROSEDALE PARK,20 SCHOLFIELD AVE,Toronto East York,27,Club,Outdoor Tennis Court,Yes,Coated,-79.3788488,43.68333821
3817,Rosedale Park,ROSEDALE PARK - Tennis Court Area (  2),ROSEDALE PARK,20 SCHOLFIELD AVE,Toronto East York,27,Public,Outdoor Tennis Court,Yes,Coated,-79.380109,43.68304016
3816,Rosedale Park,ROSEDALE PARK - Tennis Court Area (  1),ROSEDALE PARK,20 SCHOLFIELD AVE,Toronto East York,27,Club,Outdoor Tennis Court,Yes,Coated,-79.37823572,43.68346108
3813,Rosedale Park,ROSEDALE PARK - Tennis Court Area (  1),ROSEDALE PARK,20 SCHOLFIELD AVE,Toronto East York,27,Club,Outdoor Tennis Court,Yes,Coated,-79.37854389,43.68339788
3814,Rosedale Park,ROSEDALE PARK - Tennis Court Area (  1),ROSEDALE PARK,20 SCHOLFIELD AVE,Toronto East York,27,Club,Outdoor Tennis Court,Yes,Coated,-79.3783898,43.68342948
3815,Rosedale Park,ROSEDALE PARK - Tennis Court Area (  1),ROSEDALE PARK,20 SCHOLFIELD AVE,Toronto East York,27,Club,Outdoor Tennis Court,Yes,Coated,-79.37808326,43.6834915
29616,Rosedale Park,,ROSEDALE PARK,20 SCHOLFIELD AVE,Toronto East York,27,Club,Clubhouse,,,-79.37913189,43.68331292
3800,Rosethorn Park,ROSETHORN PARK - Tennis Court Area,ROSETHORN PARK,26 REMINGTON DR,Etobicoke York,4,Club,Outdoor Tennis Court,Yes,Coated,-79.53885664,43.65842435
3801,Rosethorn Park,ROSETHORN PARK - Tennis Court Area,ROSETHORN PARK,26 REMINGTON DR,Etobicoke York,4,Club,Outdoor Tennis Court,Yes,Coated,-79.53851445,43.65850203
3802,Rosethorn Park,ROSETHORN PARK - Tennis Court Area,ROSETHORN PARK,26 REMINGTON DR,Etobicoke York,4,Club,Outdoor Tennis Court,Yes,Coated,-79.53868482,43.65846444
3797,Rotary Peace Park,ROTARY PEACE PARK - Tennis Court Area,ROTARY PEACE PARK,25 ELEVENTH ST,Etobicoke York,6,Public,Outdoor Tennis Court,No,Asphalt,-79.50806035,43.59518774
3798,Rotary Peace Park,ROTARY PEACE PARK - Tennis Court Area,ROTARY PEACE PARK,25 ELEVENTH ST,Etobicoke York,6,Public,Outdoor Tennis Court,No,Asphalt,-79.50810273,43.59528723
3791,Royal Crest Park,ROYAL CREST PARK - Tennis Court Area,ROYAL CREST PARK,50 CABERNET CIR,Etobicoke York,1,Public,Outdoor Tennis Court,Yes,Concrete,-79.60500827,43.75253274
3792,Royal Crest Park,ROYAL CREST PARK - Tennis Court Area,ROYAL CREST PARK,50 CABERNET CIR,Etobicoke York,1,Public,Outdoor Tennis Court,Yes,Concrete,-79.60517885,43.75249406
3793,Royal Crest Park,ROYAL CREST PARK - Tennis Court Area,ROYAL CREST PARK,50 CABERNET CIR,Etobicoke York,1,Public,Outdoor Tennis Court,Yes,Concrete,-79.6048405,43.75257244
3786,Roywood Park,ROYWOOD PARK - Tennis Court Area,ROYWOOD PARK,2 ROYWOOD DR,North York,34,Club,Outdoor Tennis Court,Yes,Asphalt,-79.3210754,43.76370464
3787,Roywood Park,ROYWOOD PARK - Tennis Court Area,ROYWOOD PARK,2 ROYWOOD DR,North York,34,Club,Outdoor Tennis Court,Yes,Asphalt,-79.32089574,43.76375187
3788,Roywood Park,ROYWOOD PARK - Tennis Court Area,ROYWOOD PARK,2 ROYWOOD DR,North York,34,Club,Outdoor Tennis Court,Yes,Asphalt,-79.32071609,43.76379702
3789,Roywood Park,ROYWOOD PARK - Tennis Court Area,ROYWOOD PARK,2 ROYWOOD DR,North York,34,Club,Outdoor Tennis Court,Yes,Asphalt,-79.32053786,43.76384321
28182,Roywood Park,,ROYWOOD PARK,2 ROYWOOD DR,North York,34,Club,Clubhouse,,,-79.32073912,43.7641261
3781,Ruddington Park,RUDDINGTON PARK - Tennis Court Area,RUDDINGTON PARK,75 RUDDINGTON DR,North York,24,Public,Outdoor Tennis Court,Yes,Asphalt,-79.38942478,43.79258616
3782,Ruddington Park,RUDDINGTON PARK - Tennis Court Area,RUDDINGTON PARK,75 RUDDINGTON DR,North York,24,Public,Outdoor Tennis Court,Yes,Asphalt,-79.38960763,43.79254746
3783,Ruddington Park,RUDDINGTON PARK - Tennis Court Area,RUDDINGTON PARK,75 RUDDINGTON DR,North York,24,Public,Outdoor Tennis Court,Yes,Asphalt,-79.38978902,43.7925098
3778,Runnymede Park,RUNNYMEDE PARK - Tennis Court Area,RUNNYMEDE PARK,221 RYDING AVE,Etobicoke York,11,Public,Outdoor Tennis Court,No,Asphalt,-79.47774834,43.6682714
3779,Runnymede Park,RUNNYMEDE PARK - Tennis Court Area,RUNNYMEDE PARK,221 RYDING AVE,Etobicoke York,11,Public,Outdoor Tennis Court,No,Asphalt,-79.47790956,43.66823581
3768,Scarborough Bluffs Park,SCARBOROUGH BLUFFS PARK - Tennis Court Area (  1),SCARBOROUGH BLUFFS PARK,61 UNDERCLIFF DR,Scarborough,36,Club,Outdoor Tennis Court,Yes,Asphalt,-79.24216212,43.70539961
3770,Scarborough Bluffs Park,SCARBOROUGH BLUFFS PARK - Tennis Court Area (  2),SCARBOROUGH BLUFFS PARK,61 UNDERCLIFF DR,Scarborough,36,Club,Outdoor Tennis Court,Yes,Asphalt,-79.24148536,43.70551391
3769,Scarborough Bluffs Park,SCARBOROUGH BLUFFS PARK - Tennis Court Area (  1),SCARBOROUGH BLUFFS PARK,61 UNDERCLIFF DR,Scarborough,36,Club,Outdoor Tennis Court,Yes,Asphalt,-79.24231327,43.70533757
3771,Scarborough Bluffs Park,SCARBOROUGH BLUFFS PARK - Tennis Court Area (  2),SCARBOROUGH BLUFFS PARK,61 UNDERCLIFF DR,Scarborough,36,Club,Outdoor Tennis Court,Yes,Asphalt,-79.24164947,43.70545661
36745,Scarborough Bluffs Park,,SCARBOROUGH BLUFFS PARK,61 UNDERCLIFF DR,Scarborough,36,Club,Clubhouse,,,-79.241436,43.705082
3762,Scarlett Mills Park,SCARLETT MILLS PARK - Tennis Court Area,SCARLETT MILLS PARK,235 EDENBRIDGE DR,Etobicoke York,4,Public,Outdoor Tennis Court,Yes,Asphalt,-79.51095312,43.67606649
3763,Scarlett Mills Park,SCARLETT MILLS PARK - Tennis Court Area,SCARLETT MILLS PARK,235 EDENBRIDGE DR,Etobicoke York,4,Public,Outdoor Tennis Court,Yes,Asphalt,-79.51079362,43.67612267
3764,Scarlett Mills Park,SCARLETT MILLS PARK - Tennis Court Area,SCARLETT MILLS PARK,235 EDENBRIDGE DR,Etobicoke York,4,Public,Outdoor Tennis Court,Yes,Asphalt,-79.51063253,43.67617656
3765,Scarlett Mills Park,SCARLETT MILLS PARK - Tennis Court Area,SCARLETT MILLS PARK,235 EDENBRIDGE DR,Etobicoke York,4,Public,Outdoor Tennis Court,Yes,Asphalt,-79.51047145,43.67623045
3753,Seneca Hill Park,SENECA HILL PARK - Tennis Court Area,SENECA HILL PARK,620 SENECA HILL DR,North York,33,Club,Outdoor Tennis Court,Yes,Coated,-79.35245229,43.79104936
3754,Seneca Hill Park,SENECA HILL PARK - Tennis Court Area,SENECA HILL PARK,620 SENECA HILL DR,North York,33,Club,Outdoor Tennis Court,Yes,Coated,-79.35208602,43.79107756
3755,Seneca Hill Park,SENECA HILL PARK - Tennis Court Area,SENECA HILL PARK,620 SENECA HILL DR,North York,33,Club,Outdoor Tennis Court,Yes,Coated,-79.35190224,43.79109397
3756,Seneca Hill Park,SENECA HILL PARK - Tennis Court Area,SENECA HILL PARK,620 SENECA HILL DR,North York,33,Club,Outdoor Tennis Court,Yes,Coated,-79.35226979,43.791063
3749,Sentinel Park,SENTINEL PARK - Tennis Court Area,SENTINEL PARK,295 SENTINEL RD,North York,8,Public,Outdoor Tennis Court,No,Asphalt,-79.49813585,43.75574249
3750,Sentinel Park,SENTINEL PARK - Tennis Court Area,SENTINEL PARK,295 SENTINEL RD,North York,8,Public,Outdoor Tennis Court,No,Asphalt,-79.49794742,43.75573101
3742,Seven Oaks Park,SEVEN OAKS PARK - Tennis Court Area,SEVEN OAKS PARK,372 MILITARY TRL,Scarborough,43,Club,Outdoor Tennis Court,Yes,Coated,-79.21050726,43.78812802
3743,Seven Oaks Park,SEVEN OAKS PARK - Tennis Court Area,SEVEN OAKS PARK,372 MILITARY TRL,Scarborough,43,Club,Outdoor Tennis Court,Yes,Coated,-79.21016463,43.78819659
3744,Seven Oaks Park,SEVEN OAKS PARK - Tennis Court Area,SEVEN OAKS PARK,372 MILITARY TRL,Scarborough,43,Club,Outdoor Tennis Court,Yes,Coated,-79.21033594,43.78816355
3737,Shawnee Park,SHAWNEE PARK - Tennis Court Area,SHAWNEE PARK,81 SHAWNEE CIR,North York,33,Public,Outdoor Tennis Court,No,Asphalt,-79.33870752,43.79754498
3738,Shawnee Park,SHAWNEE PARK - Tennis Court Area,SHAWNEE PARK,81 SHAWNEE CIR,North York,33,Public,Outdoor Tennis Court,No,Asphalt,-79.33839605,43.79727486
3739,Shawnee Park,SHAWNEE PARK - Tennis Court Area,SHAWNEE PARK,81 SHAWNEE CIR,North York,33,Public,Outdoor Tennis Court,No,Asphalt,-79.33853096,43.79758545
3740,Shawnee Park,SHAWNEE PARK - Tennis Court Area,SHAWNEE PARK,81 SHAWNEE CIR,North York,33,Public,Outdoor Tennis Court,No,Asphalt,-79.33857261,43.79723299
3733,Silver Creek Park,SILVER CREEK PARK - Tennis Court Area,SILVER CREEK PARK,44 STRATHDEE DR,Etobicoke York,4,Public,Outdoor Tennis Court,Yes,Asphalt,-79.54507528,43.68209369
3734,Silver Creek Park,SILVER CREEK PARK - Tennis Court Area,SILVER CREEK PARK,44 STRATHDEE DR,Etobicoke York,4,Public,Outdoor Tennis Court,Yes,Asphalt,-79.54471192,43.6821057
3735,Silver Creek Park,SILVER CREEK PARK - Tennis Court Area,SILVER CREEK PARK,44 STRATHDEE DR,Etobicoke York,4,Public,Outdoor Tennis Court,Yes,Asphalt,-79.54489458,43.68210005
3726,Sir Adam Beck Park,SIR ADAM BECK PARK - Tennis Court Area,SIR ADAM BECK PARK,55 ELTHAM DR,Etobicoke York,6,Public,Outdoor Tennis Court,Yes,Asphalt,-79.54826365,43.60279773
3727,Sir Adam Beck Park,SIR ADAM BECK PARK - Tennis Court Area,SIR ADAM BECK PARK,55 ELTHAM DR,Etobicoke York,6,Public,Outdoor Tennis Court,Yes,Asphalt,-79.548098,43.60283347
3718,Sir Winston Churchill Park,SIR WINSTON CHURCHILL PARK - Tennis Court Area,SIR WINSTON CHURCHILL PARK,301 ST CLAIR AVE W,Toronto East York,22,Club,Outdoor Tennis Court,Yes,Coated,-79.40880188,43.68389191
3719,Sir Winston Churchill Park,SIR WINSTON CHURCHILL PARK - Tennis Court Area,SIR WINSTON CHURCHILL PARK,301 ST CLAIR AVE W,Toronto East York,22,Club,Outdoor Tennis Court,Yes,Coated,-79.40898792,43.68348744
3720,Sir Winston Churchill Park,SIR WINSTON CHURCHILL PARK - Tennis Court Area,SIR WINSTON CHURCHILL PARK,301 ST CLAIR AVE W,Toronto East York,22,Club,Outdoor Tennis Court,Yes,Coated,-79.40865961,43.68355863
3721,Sir Winston Churchill Park,SIR WINSTON CHURCHILL PARK - Tennis Court Area,SIR WINSTON CHURCHILL PARK,301 ST CLAIR AVE W,Toronto East York,22,Club,Outdoor Tennis Court,Yes,Coated,-79.40912582,43.68381754
3722,Sir Winston Churchill Park,SIR WINSTON CHURCHILL PARK - Tennis Court Area,SIR WINSTON CHURCHILL PARK,301 ST CLAIR AVE W,Toronto East York,22,Club,Outdoor Tennis Court,Yes,Coated,-79.40833568,43.68363142
3723,Sir Winston Churchill Park,SIR WINSTON CHURCHILL PARK - Tennis Court Area,SIR WINSTON CHURCHILL PARK,301 ST CLAIR AVE W,Toronto East York,22,Club,Outdoor Tennis Court,Yes,Coated,-79.40847139,43.68396151
3724,Sir Winston Churchill Park,SIR WINSTON CHURCHILL PARK - Tennis Court Area,SIR WINSTON CHURCHILL PARK,301 ST CLAIR AVE W,Toronto East York,22,Club,Outdoor Tennis Court,Yes,Coated,-79.40882158,43.68352224
29641,Sir Winston Churchill Park,,SIR WINSTON CHURCHILL PARK,301 ST CLAIR AVE W,Toronto East York,22,Club,Clubhouse,,,-79.40842725,43.68433366
3708,Sorauren Avenue Park,SORAUREN AVENUE PARK - Tennis Court Area,SORAUREN AVENUE PARK,289 SORAUREN AVE,Toronto East York,14,Public,Outdoor Tennis Court,No,Asphalt,-79.44403272,43.64914108
3709,Sorauren Avenue Park,SORAUREN AVENUE PARK - Tennis Court Area,SORAUREN AVENUE PARK,289 SORAUREN AVE,Toronto East York,14,Public,Outdoor Tennis Court,No,Asphalt,-79.44420452,43.64910508
3696,Stanley Park ,STANLEY PARK - Tennis Court Area,STANLEY PARK ,27 STANLEY RD,Etobicoke York,7,Public,Outdoor Tennis Court,No,Asphalt,-79.51584331,43.74150002
3697,Stanley Park ,STANLEY PARK - Tennis Court Area,STANLEY PARK ,27 STANLEY RD,Etobicoke York,7,Public,Outdoor Tennis Court,No,Asphalt,-79.51565282,43.74151166
3698,Stanley Park ,STANLEY PARK - Tennis Court Area,STANLEY PARK ,27 STANLEY RD,Etobicoke York,7,Public,Outdoor Tennis Court,No,Asphalt,-79.51546554,43.74152445
3693,Stanley Park South - Toronto,STANLEY PARK SOUTH - TORONTO - Tennis Court Area,STANLEY PARK SOUTH - TORONTO,700 WELLINGTON ST W,Toronto East York,19,Public,Outdoor Tennis Court,No,Asphalt,-79.40808359,43.64165035
3694,Stanley Park South - Toronto,STANLEY PARK SOUTH - TORONTO - Tennis Court Area,STANLEY PARK SOUTH - TORONTO,700 WELLINGTON ST W,Toronto East York,19,Public,Outdoor Tennis Court,No,Asphalt,-79.40812439,43.64176999
3687,Stephen Leacock Park,STEPHEN LEACOCK PARK - Tennis Court Area,STEPHEN LEACOCK PARK,2530 BIRCHMOUNT RD,Scarborough,40,Club,Outdoor Tennis Court,Yes,Coated,-79.30172608,43.78739564
3688,Stephen Leacock Park,STEPHEN LEACOCK PARK - Tennis Court Area,STEPHEN LEACOCK PARK,2530 BIRCHMOUNT RD,Scarborough,40,Club,Outdoor Tennis Court,Yes,Coated,-79.30224552,43.78727862
3689,Stephen Leacock Park,STEPHEN LEACOCK PARK - Tennis Court Area,STEPHEN LEACOCK PARK,2530 BIRCHMOUNT RD,Scarborough,40,Club,Outdoor Tennis Court,Yes,Coated,-79.30207177,43.78731762
3690,Stephen Leacock Park,STEPHEN LEACOCK PARK - Tennis Court Area,STEPHEN LEACOCK PARK,2530 BIRCHMOUNT RD,Scarborough,40,Club,Outdoor Tennis Court,Yes,Coated,-79.30189802,43.78735663
3679,Strathburn Park,STRATHBURN PARK - Tennis Court Area,STRATHBURN PARK,55 STRATHBURN BLVD,Etobicoke York,7,Public,Outdoor Tennis Court,Yes,Asphalt,-79.53258882,43.72176497
3680,Strathburn Park,STRATHBURN PARK - Tennis Court Area,STRATHBURN PARK,55 STRATHBURN BLVD,Etobicoke York,7,Public,Outdoor Tennis Court,Yes,Asphalt,-79.5327753,43.72172188
3674,Summerlea Park,SUMMERLEA PARK - Tennis Court Area,SUMMERLEA PARK,2 ARCOT BLVD,Etobicoke York,2,Public,Outdoor Tennis Court,Yes,Asphalt,-79.55206435,43.728233
3675,Summerlea Park,SUMMERLEA PARK - Tennis Court Area,SUMMERLEA PARK,2 ARCOT BLVD,Etobicoke York,2,Public,Outdoor Tennis Court,Yes,Asphalt,-79.55214685,43.72812245
3667,Sunnydale Acres Park,SUNNYDALE ACRES PARK - Tennis Court Area,SUNNYDALE ACRES PARK,50 AMORO DR,Etobicoke York,2,Public,Outdoor Tennis Court,Yes,Asphalt,-79.57833983,43.72454631
3668,Sunnydale Acres Park,SUNNYDALE ACRES PARK - Tennis Court Area,SUNNYDALE ACRES PARK,50 AMORO DR,Etobicoke York,2,Public,Outdoor Tennis Court,Yes,Asphalt,-79.57828845,43.72443877
3669,Sunnydale Acres Park,SUNNYDALE ACRES PARK - Tennis Court Area,SUNNYDALE ACRES PARK,50 AMORO DR,Etobicoke York,2,Public,Outdoor Tennis Court,Yes,Asphalt,-79.57838913,43.72464952
3670,Sunnydale Acres Park,SUNNYDALE ACRES PARK - Tennis Court Area,SUNNYDALE ACRES PARK,50 AMORO DR,Etobicoke York,2,Public,Outdoor Tennis Court,Yes,Asphalt,-79.57823597,43.72433532
3664,Sunnylea Park,SUNNYLEA PARK - Tennis Court Area,SUNNYLEA PARK,195 PRINCE EDWARD DR S,Etobicoke York,5,Public,Outdoor Tennis Court,Yes,Asphalt,-79.50187352,43.64156439
3665,Sunnylea Park,SUNNYLEA PARK - Tennis Court Area,SUNNYLEA PARK,195 PRINCE EDWARD DR S,Etobicoke York,5,Public,Outdoor Tennis Court,Yes,Asphalt,-79.50171338,43.64159927
3660,Sweeney Park,SWEENEY PARK - Tennis Court Area,SWEENEY PARK,110 SWEENEY DR,North York,34,Public,Outdoor Tennis Court,Yes,Asphalt,-79.31574876,43.73584145
3661,Sweeney Park,SWEENEY PARK - Tennis Court Area,SWEENEY PARK,110 SWEENEY DR,North York,34,Public,Outdoor Tennis Court,Yes,Asphalt,-79.31556661,43.73580419
3662,Sweeney Park,SWEENEY PARK - Tennis Court Area,SWEENEY PARK,110 SWEENEY DR,North York,34,Public,Outdoor Tennis Court,Yes,Asphalt,-79.31538136,43.73576582
3657,Symington Avenue Playground,SYMINGTON AVENUE PLAYGROUND - Tennis Court Area,SYMINGTON AVENUE PLAYGROUND,431 PERTH AVE,Toronto East York,18,Public,Outdoor Tennis Court,No,Asphalt,-79.45201697,43.66656969
3658,Symington Avenue Playground,SYMINGTON AVENUE PLAYGROUND - Tennis Court Area,SYMINGTON AVENUE PLAYGROUND,431 PERTH AVE,Toronto East York,18,Public,Outdoor Tennis Court,No,Asphalt,-79.4518412,43.66660468
3652,Tam Heather Country Club Grounds,TAM HEATHER COUNTRY CLUB - Tennis Court Area,TAM HEATHER COUNTRY CLUB GROUNDS,50 BONSPIEL DR,Scarborough,43,Club,Outdoor Tennis Court,Yes,Coated,-79.19832595,43.79144095
3653,Tam Heather Country Club Grounds,TAM HEATHER COUNTRY CLUB - Tennis Court Area,TAM HEATHER COUNTRY CLUB GROUNDS,50 BONSPIEL DR,Scarborough,43,Club,Outdoor Tennis Court,Yes,Coated,-79.19841049,43.79165315
3654,Tam Heather Country Club Grounds,TAM HEATHER COUNTRY CLUB - Tennis Court Area,TAM HEATHER COUNTRY CLUB GROUNDS,50 BONSPIEL DR,Scarborough,43,Club,Outdoor Tennis Court,Yes,Coated,-79.19836698,43.79153961
3655,Tam Heather Country Club Grounds,TAM HEATHER COUNTRY CLUB - Tennis Court Area,TAM HEATHER COUNTRY CLUB GROUNDS,50 BONSPIEL DR,Scarborough,43,Club,Outdoor Tennis Court,Yes,Coated,-79.19828573,43.79133618
3647,Thomson Memorial Park,THOMSON MEMORIAL PARK - Tennis Court Area,THOMSON MEMORIAL PARK,1005 BRIMLEY RD,Scarborough,38,Club,Outdoor Tennis Court,Yes,Coated,-79.2546493,43.75602336
3648,Thomson Memorial Park,THOMSON MEMORIAL PARK - Tennis Court Area,THOMSON MEMORIAL PARK,1005 BRIMLEY RD,Scarborough,38,Club,Outdoor Tennis Court,Yes,Coated,-79.25501447,43.75601397
3649,Thomson Memorial Park,THOMSON MEMORIAL PARK - Tennis Court Area,THOMSON MEMORIAL PARK,1005 BRIMLEY RD,Scarborough,38,Club,Outdoor Tennis Court,Yes,Coated,-79.25483345,43.75601697
3643,Three Valleys Park,THREE VALLEYS PARK - Tennis Court Area,THREE VALLEYS PARK,82 THREE VALLEYS DR,North York,34,Club,Outdoor Tennis Court,Yes,Coated,-79.33898719,43.75037038
3644,Three Valleys Park,THREE VALLEYS PARK - Tennis Court Area,THREE VALLEYS PARK,82 THREE VALLEYS DR,North York,34,Club,Outdoor Tennis Court,Yes,Coated,-79.33887823,43.75048245
3631,Tom Riley Park,TOM RILEY PARK - Tennis Court Area (  2),TOM RILEY PARK,4725 DUNDAS ST W,Etobicoke York,5,Club,Outdoor Tennis Court,Yes,Asphalt,-79.52004616,43.64786247
3639,Tom Riley Park,TOM RILEY PARK - Tennis Court Area (  2),TOM RILEY PARK,4725 DUNDAS ST W,Etobicoke York,5,Club,Outdoor Tennis Court,Yes,Asphalt,-79.51971138,43.64780415
3638,Tom Riley Park,TOM RILEY PARK - Tennis Court Area (  2),TOM RILEY PARK,4725 DUNDAS ST W,Etobicoke York,5,Club,Outdoor Tennis Court,Yes,Asphalt,-79.51987877,43.64783271
3621,Topham Park,TOPHAM PARK - Tennis Court Area,TOPHAM PARK,181 WESTVIEW BLVD,Toronto East York,31,Public,Outdoor Tennis Court,Yes,Asphalt,-79.30645837,43.71094165
3622,Topham Park,TOPHAM PARK - Tennis Court Area,TOPHAM PARK,181 WESTVIEW BLVD,Toronto East York,31,Public,Outdoor Tennis Court,Yes,Asphalt,-79.30662604,43.71090506
3607,Tournament Park,TOURNAMENT PARK - Tennis Court Area,TOURNAMENT PARK,40 TOURNAMENT DR,North York,25,Club,Outdoor Tennis Court,Yes,Coated,-79.39991418,43.7511488
3608,Tournament Park,TOURNAMENT PARK - Tennis Court Area,TOURNAMENT PARK,40 TOURNAMENT DR,North York,25,Club,Outdoor Tennis Court,Yes,Coated,-79.40009349,43.75111807
3609,Tournament Park,TOURNAMENT PARK - Tennis Court Area,TOURNAMENT PARK,40 TOURNAMENT DR,North York,25,Club,Outdoor Tennis Court,Yes,Coated,-79.40026841,43.75108627
3610,Tournament Park,TOURNAMENT PARK - Tennis Court Area,TOURNAMENT PARK,40 TOURNAMENT DR,North York,25,Club,Outdoor Tennis Court,Yes,Coated,-79.40044478,43.75105873
29713,Tournament Park,,TOURNAMENT PARK,40 TOURNAMENT DR,North York,25,Club,Clubhouse,,,-79.40059469,43.75105109
3600,Trace Manes Park,TRACE MANES PARK - Tennis Court Area (  1),TRACE MANES PARK,110 RUMSEY RD,North York,26,Club,Outdoor Tennis Court,Yes,Coated,-79.36764193,43.70548294
3604,Trace Manes Park,TRACE MANES PARK - Tennis Court Area (  2),TRACE MANES PARK,110 RUMSEY RD,North York,26,Club,Outdoor Tennis Court,Yes,Coated,-79.36778565,43.70584616
3601,Trace Manes Park,TRACE MANES PARK - Tennis Court Area (  1),TRACE MANES PARK,110 RUMSEY RD,North York,26,Club,Outdoor Tennis Court,Yes,Coated,-79.36781241,43.70545653
3605,Trace Manes Park,TRACE MANES PARK - Tennis Court Area (  2),TRACE MANES PARK,110 RUMSEY RD,North York,26,Club,Outdoor Tennis Court,Yes,Coated,-79.36760438,43.70587412
3602,Trace Manes Park,TRACE MANES PARK - Tennis Court Area (  2),TRACE MANES PARK,110 RUMSEY RD,North York,26,Club,Outdoor Tennis Court,Yes,Coated,-79.36724402,43.70592692
3603,Trace Manes Park,TRACE MANES PARK - Tennis Court Area (  2),TRACE MANES PARK,110 RUMSEY RD,North York,26,Club,Outdoor Tennis Court,Yes,Coated,-79.36742528,43.70590052
3585,Trinity Bellwoods Park,TRINITY BELLWOODS PARK - Tennis Court Area,TRINITY BELLWOODS PARK,790 QUEEN ST W,Toronto East York,19,Public,Outdoor Tennis Court,Yes,Asphalt,-79.4124157,43.64666355
3586,Trinity Bellwoods Park,TRINITY BELLWOODS PARK - Tennis Court Area,TRINITY BELLWOODS PARK,790 QUEEN ST W,Toronto East York,19,Public,Outdoor Tennis Court,Yes,Asphalt,-79.41210347,43.64638662
3587,Trinity Bellwoods Park,TRINITY BELLWOODS PARK - Tennis Court Area,TRINITY BELLWOODS PARK,790 QUEEN ST W,Toronto East York,19,Public,Outdoor Tennis Court,Yes,Asphalt,-79.41274034,43.64660007
3588,Trinity Bellwoods Park,TRINITY BELLWOODS PARK - Tennis Court Area,TRINITY BELLWOODS PARK,790 QUEEN ST W,Toronto East York,19,Public,Outdoor Tennis Court,Yes,Asphalt,-79.41257699,43.64663403
3462,Valleyfield Park,,VALLEYFIELD PARK,35 THE WESTWAY,Etobicoke York,4,Public,Outdoor Tennis Court,No,Asphalt,-79.53424727,43.69490251
3432,Viewmount Park,VIEWMOUNT PARK - Tennis Court Area,VIEWMOUNT PARK,169 VIEWMOUNT AVE,North York,15,Club,Outdoor Tennis Court,Yes,Coated,-79.43700745,43.70753823
3433,Viewmount Park,VIEWMOUNT PARK - Tennis Court Area,VIEWMOUNT PARK,169 VIEWMOUNT AVE,North York,15,Club,Outdoor Tennis Court,Yes,Coated,-79.43648387,43.70764761
3434,Viewmount Park,VIEWMOUNT PARK - Tennis Court Area,VIEWMOUNT PARK,169 VIEWMOUNT AVE,North York,15,Club,Outdoor Tennis Court,Yes,Coated,-79.43683292,43.70757429
3435,Viewmount Park,VIEWMOUNT PARK - Tennis Court Area,VIEWMOUNT PARK,169 VIEWMOUNT AVE,North York,15,Club,Outdoor Tennis Court,Yes,Coated,-79.4366584,43.70760914
3285,Wanless Park,WANLESS PARK - Tennis Court Area,WANLESS PARK,250 WANLESS AVE,North York,25,Club,Outdoor Tennis Court,Yes,Coated,-79.3932826,43.72913182
3286,Wanless Park,WANLESS PARK - Tennis Court Area,WANLESS PARK,250 WANLESS AVE,North York,25,Club,Outdoor Tennis Court,Yes,Coated,-79.39278297,43.72923712
3287,Wanless Park,WANLESS PARK - Tennis Court Area,WANLESS PARK,250 WANLESS AVE,North York,25,Club,Outdoor Tennis Court,Yes,Coated,-79.39294951,43.72920202
3288,Wanless Park,WANLESS PARK - Tennis Court Area,WANLESS PARK,250 WANLESS AVE,North York,25,Club,Outdoor Tennis Court,Yes,Coated,-79.39311606,43.72916692
3289,Wanless Park,WANLESS PARK - Tennis Court Area,WANLESS PARK,250 WANLESS AVE,North York,25,Club,Outdoor Tennis Court,Yes,Coated,-79.39261495,43.72927222
3196,Wedgewood Park - Etobicoke,,WEDGEWOOD PARK - ETOBICOKE,15 SWAN AVE,Etobicoke York,5,Public,Outdoor Tennis Court,No,Asphalt,-79.54741676,43.64415629
3177,Wedgewood Park - North York,WEDGEWOOD PARK - Tennis Court Area,WEDGEWOOD PARK - NORTH YORK,145 WEDGEWOOD DR,North York,24,Public,Outdoor Tennis Court,Yes,Asphalt,-79.40645841,43.7907447
3178,Wedgewood Park - North York,WEDGEWOOD PARK - Tennis Court Area,WEDGEWOOD PARK - NORTH YORK,145 WEDGEWOOD DR,North York,24,Public,Outdoor Tennis Court,Yes,Asphalt,-79.40629124,43.79078244
3100,West Deane Park,WEST DEANE PARK - Tennis Court Area,WEST DEANE PARK,19 SEDGEBROOK CRES,Etobicoke York,3,Club,Outdoor Tennis Court,Yes,Asphalt,-79.55918125,43.6632802
3101,West Deane Park,WEST DEANE PARK - Tennis Court Area,WEST DEANE PARK,19 SEDGEBROOK CRES,Etobicoke York,3,Club,Outdoor Tennis Court,Yes,Asphalt,-79.55883277,43.66325771
3102,West Deane Park,WEST DEANE PARK - Tennis Court Area,WEST DEANE PARK,19 SEDGEBROOK CRES,Etobicoke York,3,Club,Outdoor Tennis Court,Yes,Asphalt,-79.55935271,43.66329134
3103,West Deane Park,WEST DEANE PARK - Tennis Court Area,WEST DEANE PARK,19 SEDGEBROOK CRES,Etobicoke York,3,Club,Outdoor Tennis Court,Yes,Asphalt,-79.55900879,43.66326918
3359,Dennis Flynn Park,,DENNIS FLYNN PARK,370 THE WEST MALL,Etobicoke York,3,Public,Outdoor Tennis Court,Yes,Asphalt,-79.56621687,43.64120715
3360,Dennis Flynn Park,,DENNIS FLYNN PARK,370 THE WEST MALL,Etobicoke York,3,Public,Outdoor Tennis Court,Yes,Asphalt,-79.5664128,43.64116249
3361,Dennis Flynn Park,,DENNIS FLYNN PARK,370 THE WEST MALL,Etobicoke York,3,Public,Outdoor Tennis Court,Yes,Asphalt,-79.56601794,43.64125181
2973,West Rouge Park,WEST ROUGE PARK - Tennis Court Area,WEST ROUGE PARK,270 ROUGE HILLS DR,Scarborough,44,Club,Outdoor Tennis Court,Yes,Coated,-79.1260191,43.79254947
2974,West Rouge Park,WEST ROUGE PARK - Tennis Court Area,WEST ROUGE PARK,270 ROUGE HILLS DR,Scarborough,44,Club,Outdoor Tennis Court,Yes,Coated,-79.1258758,43.79247869
2975,West Rouge Park,WEST ROUGE PARK - Tennis Court Area,WEST ROUGE PARK,270 ROUGE HILLS DR,Scarborough,44,Club,Outdoor Tennis Court,Yes,Coated,-79.12573065,43.79240655
2962,Westgrove Park,WESTGROVE PARK - Tennis Court Area,WESTGROVE PARK,15 REDGRAVE DR,Etobicoke York,4,Public,Outdoor Tennis Court,Yes,Asphalt,-79.56768523,43.68273695
2963,Westgrove Park,WESTGROVE PARK - Tennis Court Area,WESTGROVE PARK,15 REDGRAVE DR,Etobicoke York,4,Public,Outdoor Tennis Court,Yes,Asphalt,-79.56751607,43.68277467
2964,Westgrove Park,WESTGROVE PARK - Tennis Court Area,WESTGROVE PARK,15 REDGRAVE DR,Etobicoke York,4,Public,Outdoor Tennis Court,Yes,Asphalt,-79.56784829,43.68269768
2950,Westmount Park,WESTMOUNT PARK - Tennis Court Area,WESTMOUNT PARK,22 ARCADE DR,Etobicoke York,2,Public,Outdoor Tennis Court,Yes,Asphalt,-79.51895738,43.687485
2951,Westmount Park,WESTMOUNT PARK - Tennis Court Area,WESTMOUNT PARK,22 ARCADE DR,Etobicoke York,2,Public,Outdoor Tennis Court,Yes,Asphalt,-79.51878336,43.68752235
2952,Westmount Park,WESTMOUNT PARK - Tennis Court Area,WESTMOUNT PARK,22 ARCADE DR,Etobicoke York,2,Public,Outdoor Tennis Court,Yes,Asphalt,-79.51912878,43.68744812
2957,Weston Lions Park,WESTON LIONS PARK - Tennis Court Area,WESTON LIONS PARK,2125 LAWRENCE AVE W,Etobicoke York,11,Club,Outdoor Tennis Court,Yes,Coated,-79.51842254,43.69772494
2958,Weston Lions Park,WESTON LIONS PARK - Tennis Court Area,WESTON LIONS PARK,2125 LAWRENCE AVE W,Etobicoke York,11,Club,Outdoor Tennis Court,Yes,Coated,-79.5182457,43.69769094
2959,Weston Lions Park,WESTON LIONS PARK - Tennis Court Area,WESTON LIONS PARK,2125 LAWRENCE AVE W,Etobicoke York,11,Club,Outdoor Tennis Court,Yes,Coated,-79.51798228,43.69778001
2960,Weston Lions Park,WESTON LIONS PARK - Tennis Court Area,WESTON LIONS PARK,2125 LAWRENCE AVE W,Etobicoke York,11,Club,Outdoor Tennis Court,Yes,Coated,-79.51780543,43.69774732
3989,Westway Park,WESTWAY PARK - Tennis Court Area,WESTWAY PARK,175 THE WESTWAY,Etobicoke York,4,Public,Outdoor Tennis Court,Yes,Asphalt,-79.54205012,43.68821725
3990,Westway Park,WESTWAY PARK - Tennis Court Area,WESTWAY PARK,175 THE WESTWAY,Etobicoke York,4,Public,Outdoor Tennis Court,Yes,Asphalt,-79.54194438,43.68798899
3991,Westway Park,WESTWAY PARK - Tennis Court Area,WESTWAY PARK,175 THE WESTWAY,Etobicoke York,4,Public,Outdoor Tennis Court,Yes,Asphalt,-79.54199936,43.68810581
3992,Westway Park,WESTWAY PARK - Tennis Court Area,WESTWAY PARK,175 THE WESTWAY,Etobicoke York,4,Public,Outdoor Tennis Court,Yes,Asphalt,-79.54188849,43.68786656
3804,Willowdale Park,WILLOWDALE PARK - Tennis Court Area,WILLOWDALE PARK,75 HOLLYWOOD AVE,North York,23,Club,Outdoor Tennis Court,Yes,Clay,-79.40853245,43.76610166
3805,Willowdale Park,WILLOWDALE PARK - Tennis Court Area,WILLOWDALE PARK,75 HOLLYWOOD AVE,North York,23,Club,Outdoor Tennis Court,Yes,Clay,-79.40830732,43.76615155
3806,Willowdale Park,WILLOWDALE PARK - Tennis Court Area,WILLOWDALE PARK,75 HOLLYWOOD AVE,North York,23,Club,Outdoor Tennis Court,Yes,Clay,-79.40875218,43.76605895
3807,Willowdale Park,WILLOWDALE PARK - Tennis Court Area,WILLOWDALE PARK,75 HOLLYWOOD AVE,North York,23,Club,Outdoor Tennis Court,Yes,Clay,-79.408818,43.766041
3700,Wishing Well Park,WISHING WELL PARK - Tennis Court Area,WISHING WELL PARK,1700 PHARMACY AVE,Scarborough,40,Club,Outdoor Tennis Court,Yes,Coated,-79.317182,43.76992939
3701,Wishing Well Park,WISHING WELL PARK - Tennis Court Area,WISHING WELL PARK,1700 PHARMACY AVE,Scarborough,40,Club,Outdoor Tennis Court,Yes,Coated,-79.31748896,43.77006925
3702,Wishing Well Park,WISHING WELL PARK - Tennis Court Area,WISHING WELL PARK,1700 PHARMACY AVE,Scarborough,40,Club,Outdoor Tennis Court,Yes,Coated,-79.31733634,43.76999932
3682,Withrow Park,WITHROW PARK - Tennis Court Area,WITHROW PARK,725 LOGAN AVE,Toronto East York,30,Public,Outdoor Tennis Court,No,Asphalt,-79.34849634,43.67597123
3683,Withrow Park,WITHROW PARK - Tennis Court Area,WITHROW PARK,725 LOGAN AVE,Toronto East York,30,Public,Outdoor Tennis Court,No,Asphalt,-79.34832335,43.67600946
29524,Hillcrest Park,,HILLCREST PARK,950 DAVENPORT RD,Toronto East York,21,Club,Clubhouse,,,-79.42408744,43.67658129
3886,York Mills Valley Park,YORK MILLS VALLEY PARK - Tennis Court Area (  1),YORK MILLS VALLEY PARK,3865 YONGE ST,North York,25,Public,Outdoor Tennis Court,Yes,Coated,-79.40548109,43.74010831
3882,York Mills Valley Park,YORK MILLS VALLEY PARK - Tennis Court Area (  2),YORK MILLS VALLEY PARK,3865 YONGE ST,North York,25,Public,Outdoor Tennis Court,Yes,Coated,-79.40534608,43.73967306
3887,York Mills Valley Park,YORK MILLS VALLEY PARK - Tennis Court Area (  1),YORK MILLS VALLEY PARK,3865 YONGE ST,North York,25,Public,Outdoor Tennis Court,Yes,Coated,-79.40510564,43.74016446
3883,York Mills Valley Park,YORK MILLS VALLEY PARK - Tennis Court Area (  2),YORK MILLS VALLEY PARK,3865 YONGE ST,North York,25,Public,Outdoor Tennis Court,Yes,Coated,-79.40515836,43.73969896
3885,York Mills Valley Park,YORK MILLS VALLEY PARK - Tennis Court Area (  1),YORK MILLS VALLEY PARK,3865 YONGE ST,North York,25,Public,Outdoor Tennis Court,Yes,Coated,-79.40529337,43.74013566
29757,York Mills Valley Park,,YORK MILLS VALLEY PARK,1 MILL ST,North York,25,Club,Clubhouse,,,-79.40499951,43.73994187